{"type":"Feature","properties":{"NOMBRE":"Parque Nacional Laguna San Rafael","OSM_ID":4647128,"fuente":"OSM via polygons.openstreetmap.fr (geometria completa)"},"geometry":{"type":"MultiPolygon","coordinates":[[[[-75.69555,-46.97445],[-75.69562,-46.86982],[-75.69568,-46.76498],[-75.69574,-46.65994],[-75.6958,-46.5547],[-75.54721,-46.55452],[-75.54742,-46.46668],[-75.40129,-46.46651],[-75.40151,-46.37578],[-75.28875,-46.37565],[-75.28883,-46.34164],[-75.21695,-46.34155],[-75.21712,-46.27001],[-75.14605,-46.26993],[-75.14623,-46.19775],[-75.03239,-46.19762],[-74.98238,-46.19756],[-74.94473,-46.22934],[-74.91536,-46.25514],[-74.87924,-46.28512],[-74.86438,-46.29179],[-74.85714,-46.29818],[-74.85227,-46.29751],[-74.85068,-46.29731],[-74.84967,-46.29744],[-74.84876,-46.29757],[-74.84799,-46.29744],[-74.84775,-46.29738],[-74.84764,-46.29737],[-74.84744,-46.29738],[-74.84729,-46.29742],[-74.84719,-46.29742],[-74.84711,-46.29741],[-74.84702,-46.29737],[-74.84694,-46.29732],[-74.84689,-46.2973],[-74.84678,-46.29727],[-74.8466,-46.29719],[-74.84638,-46.29711],[-74.84607,-46.29706],[-74.84584,-46.29701],[-74.84573,-46.29697],[-74.84545,-46.29691],[-74.8454,-46.2969],[-74.84511,-46.29684],[-74.84496,-46.29683],[-74.84475,-46.29679],[-74.84452,-46.29673],[-74.84445,-46.2967],[-74.84439,-46.29668],[-74.84432,-46.29667],[-74.84422,-46.29664],[-74.84405,-46.29659],[-74.84394,-46.29654],[-74.84385,-46.29651],[-74.84372,-46.29644],[-74.84362,-46.29638],[-74.84349,-46.29628],[-74.84341,-46.29623],[-74.84314,-46.2961],[-74.84303,-46.29604],[-74.84299,-46.29602],[-74.84283,-46.29593],[-74.84263,-46.29578],[-74.84259,-46.29574],[-74.8425,-46.29567],[-74.84232,-46.29556],[-74.84224,-46.2955],[-74.84217,-46.29546],[-74.84195,-46.29538],[-74.84174,-46.29532],[-74.84144,-46.29519],[-74.84125,-46.29509],[-74.84093,-46.29485],[-74.84087,-46.2948],[-74.84079,-46.29475],[-74.8407,-46.29471],[-74.84039,-46.2946],[-74.84027,-46.29454],[-74.84007,-46.29442],[-74.83995,-46.29435],[-74.8399,-46.29434],[-74.83977,-46.29428],[-74.83972,-46.29426],[-74.83947,-46.29423],[-74.83941,-46.29421],[-74.8393,-46.29416],[-74.83921,-46.2941],[-74.83919,-46.29403],[-74.83922,-46.29399],[-74.83921,-46.2939],[-74.83918,-46.29383],[-74.83912,-46.29376],[-74.83904,-46.29372],[-74.83898,-46.29369],[-74.83885,-46.29365],[-74.83875,-46.29361],[-74.83833,-46.29343],[-74.83818,-46.29338],[-74.83799,-46.29334],[-74.83783,-46.29329],[-74.83775,-46.29325],[-74.83764,-46.29318],[-74.83757,-46.29313],[-74.83753,-46.29311],[-74.83748,-46.2931],[-74.83738,-46.29308],[-74.83708,-46.29304],[-74.83694,-46.29301],[-74.83678,-46.29294],[-74.83668,-46.29291],[-74.83659,-46.29289],[-74.83653,-46.29289],[-74.83633,-46.29284],[-74.83612,-46.29278],[-74.836,-46.29277],[-74.83577,-46.29272],[-74.83551,-46.29263],[-74.83519,-46.29254],[-74.83507,-46.29254],[-74.83496,-46.29255],[-74.83483,-46.29255],[-74.83478,-46.29254],[-74.83473,-46.29253],[-74.83443,-46.29251],[-74.83438,-46.2925],[-74.83432,-46.2925],[-74.83407,-46.29244],[-74.83392,-46.29239],[-74.83384,-46.29233],[-74.83379,-46.29231],[-74.83359,-46.29224],[-74.83347,-46.29221],[-74.83333,-46.29219],[-74.83316,-46.29219],[-74.83298,-46.29216],[-74.8327,-46.29219],[-74.83259,-46.29218],[-74.8325,-46.29216],[-74.83236,-46.29211],[-74.83231,-46.2921],[-74.83226,-46.29209],[-74.8322,-46.2921],[-74.83215,-46.29211],[-74.83209,-46.29211],[-74.83204,-46.2921],[-74.83189,-46.29206],[-74.83183,-46.29201],[-74.83182,-46.29197],[-74.83185,-46.29186],[-74.83185,-46.29178],[-74.83184,-46.29175],[-74.83178,-46.29169],[-74.83164,-46.29163],[-74.83135,-46.29155],[-74.8313,-46.29154],[-74.83113,-46.29152],[-74.83095,-46.29152],[-74.8309,-46.29152],[-74.83073,-46.29156],[-74.83066,-46.29157],[-74.83054,-46.29157],[-74.83042,-46.29154],[-74.83038,-46.29152],[-74.83025,-46.29148],[-74.83017,-46.29145],[-74.83011,-46.29143],[-74.82996,-46.29139],[-74.8299,-46.29139],[-74.82981,-46.29144],[-74.82977,-46.29147],[-74.82959,-46.29166],[-74.8295,-46.29187],[-74.8295,-46.29191],[-74.82949,-46.29194],[-74.82943,-46.29202],[-74.82938,-46.29209],[-74.82923,-46.29221],[-74.8291,-46.29228],[-74.829,-46.29231],[-74.8288,-46.29237],[-74.82852,-46.29246],[-74.82841,-46.29249],[-74.82816,-46.29252],[-74.82786,-46.2926],[-74.82762,-46.29271],[-74.8275,-46.2928],[-74.8274,-46.2929],[-74.82728,-46.29299],[-74.82718,-46.29305],[-74.82705,-46.2931],[-74.82683,-46.29312],[-74.82665,-46.29316],[-74.82657,-46.2932],[-74.82654,-46.29323],[-74.82652,-46.29327],[-74.82652,-46.29334],[-74.82656,-46.29343],[-74.8266,-46.2935],[-74.82669,-46.29357],[-74.82677,-46.29361],[-74.8268,-46.29364],[-74.82681,-46.2937],[-74.82677,-46.29377],[-74.82676,-46.2938],[-74.82677,-46.29384],[-74.82693,-46.29391],[-74.82697,-46.29392],[-74.82702,-46.29393],[-74.82703,-46.29396],[-74.82702,-46.29404],[-74.82695,-46.2941],[-74.82677,-46.29418],[-74.82673,-46.2942],[-74.82658,-46.29427],[-74.82638,-46.29433],[-74.82615,-46.29445],[-74.82609,-46.29447],[-74.82602,-46.29448],[-74.82586,-46.29448],[-74.8257,-46.29446],[-74.82548,-46.29448],[-74.82513,-46.29448],[-74.82508,-46.29448],[-74.82502,-46.2945],[-74.82495,-46.29455],[-74.82491,-46.29459],[-74.82475,-46.29479],[-74.82466,-46.29484],[-74.82462,-46.29488],[-74.82447,-46.29498],[-74.82441,-46.29503],[-74.82404,-46.29524],[-74.82391,-46.29536],[-74.82387,-46.29543],[-74.8238,-46.29564],[-74.82375,-46.29587],[-74.82373,-46.2959],[-74.82373,-46.29598],[-74.82372,-46.29611],[-74.82366,-46.29627],[-74.8235,-46.29652],[-74.8234,-46.29677],[-74.82333,-46.2969],[-74.82318,-46.29701],[-74.82304,-46.29709],[-74.82292,-46.29717],[-74.82286,-46.29723],[-74.82278,-46.29736],[-74.82275,-46.29742],[-74.82273,-46.29749],[-74.82272,-46.29772],[-74.8227,-46.29783],[-74.82265,-46.29792],[-74.82259,-46.29806],[-74.82259,-46.29809],[-74.82257,-46.29813],[-74.82251,-46.29819],[-74.82238,-46.29826],[-74.82233,-46.29829],[-74.82224,-46.29838],[-74.82217,-46.29844],[-74.82208,-46.2985],[-74.82205,-46.29853],[-74.82201,-46.2986],[-74.82201,-46.29873],[-74.82207,-46.29888],[-74.82211,-46.29895],[-74.82211,-46.29898],[-74.82203,-46.29915],[-74.82198,-46.29934],[-74.82193,-46.29943],[-74.82181,-46.29951],[-74.82166,-46.29956],[-74.82161,-46.29957],[-74.82155,-46.29957],[-74.82141,-46.29954],[-74.82115,-46.29949],[-74.82097,-46.29949],[-74.82063,-46.29955],[-74.82053,-46.29958],[-74.82041,-46.2996],[-74.82035,-46.29963],[-74.82022,-46.29971],[-74.82012,-46.2998],[-74.82011,-46.29983],[-74.82011,-46.2999],[-74.82005,-46.30002],[-74.82002,-46.30005],[-74.81998,-46.30008],[-74.81982,-46.30015],[-74.81972,-46.30023],[-74.81967,-46.30029],[-74.81959,-46.30045],[-74.81954,-46.30052],[-74.8195,-46.30055],[-74.81934,-46.30062],[-74.81909,-46.30068],[-74.81904,-46.3007],[-74.81895,-46.30076],[-74.81884,-46.30087],[-74.81874,-46.30098],[-74.81864,-46.30104],[-74.81849,-46.30113],[-74.81846,-46.30117],[-74.81841,-46.30127],[-74.8183,-46.30135],[-74.81821,-46.3014],[-74.81807,-46.30146],[-74.81798,-46.30148],[-74.81792,-46.30149],[-74.81785,-46.30153],[-74.81781,-46.30154],[-74.81765,-46.30162],[-74.8176,-46.30163],[-74.81754,-46.30164],[-74.8175,-46.30162],[-74.81735,-46.30156],[-74.81723,-46.30156],[-74.81718,-46.30157],[-74.81713,-46.30158],[-74.81705,-46.30162],[-74.81699,-46.30172],[-74.81698,-46.30175],[-74.81698,-46.30179],[-74.81699,-46.30183],[-74.81704,-46.30192],[-74.81709,-46.30203],[-74.81709,-46.30206],[-74.81707,-46.3021],[-74.81703,-46.30216],[-74.81676,-46.30235],[-74.81664,-46.30245],[-74.81659,-46.30248],[-74.8165,-46.30257],[-74.81644,-46.30264],[-74.81643,-46.30272],[-74.8165,-46.30293],[-74.81655,-46.30298],[-74.81668,-46.30304],[-74.81691,-46.30318],[-74.81695,-46.30325],[-74.81697,-46.30332],[-74.81698,-46.30336],[-74.81698,-46.30343],[-74.81695,-46.30355],[-74.81696,-46.30366],[-74.81701,-46.30375],[-74.81702,-46.30379],[-74.81701,-46.30386],[-74.81698,-46.30399],[-74.81693,-46.3041],[-74.81691,-46.30413],[-74.81684,-46.30418],[-74.81674,-46.30426],[-74.81668,-46.30437],[-74.81669,-46.30457],[-74.81673,-46.30473],[-74.81673,-46.30493],[-74.8167,-46.30501],[-74.81665,-46.30518],[-74.81665,-46.30538],[-74.81662,-46.30545],[-74.81627,-46.30576],[-74.81615,-46.3059],[-74.81613,-46.30593],[-74.81606,-46.30599],[-74.81583,-46.30613],[-74.81564,-46.30621],[-74.81531,-46.3063],[-74.81517,-46.30637],[-74.81515,-46.30641],[-74.81516,-46.30646],[-74.81516,-46.30651],[-74.81512,-46.30659],[-74.8151,-46.30662],[-74.81505,-46.30664],[-74.81502,-46.30667],[-74.81491,-46.30669],[-74.81475,-46.30668],[-74.81459,-46.30666],[-74.81439,-46.3066],[-74.81435,-46.30659],[-74.81424,-46.30659],[-74.81419,-46.3066],[-74.81409,-46.30666],[-74.81402,-46.30671],[-74.81399,-46.30674],[-74.81394,-46.30682],[-74.81386,-46.30691],[-74.81382,-46.30695],[-74.81377,-46.30701],[-74.81363,-46.30726],[-74.81357,-46.30734],[-74.8135,-46.30745],[-74.81345,-46.30751],[-74.81343,-46.30757],[-74.8134,-46.30772],[-74.81334,-46.30794],[-74.81329,-46.30801],[-74.81327,-46.30804],[-74.81313,-46.3081],[-74.81301,-46.30818],[-74.81291,-46.30828],[-74.81282,-46.30841],[-74.81274,-46.30848],[-74.81258,-46.3086],[-74.81248,-46.3087],[-74.81241,-46.30875],[-74.8122,-46.30887],[-74.81208,-46.30895],[-74.81193,-46.30908],[-74.81185,-46.30919],[-74.81179,-46.30943],[-74.81167,-46.30966],[-74.81163,-46.30994],[-74.81159,-46.31005],[-74.81152,-46.31017],[-74.81147,-46.31034],[-74.81123,-46.31084],[-74.81111,-46.31097],[-74.81102,-46.3111],[-74.81092,-46.31121],[-74.81088,-46.3113],[-74.81085,-46.31137],[-74.81081,-46.31144],[-74.81074,-46.3115],[-74.81046,-46.31172],[-74.81015,-46.31194],[-74.80995,-46.31211],[-74.80975,-46.31227],[-74.80953,-46.3125],[-74.80942,-46.31258],[-74.80936,-46.31262],[-74.80925,-46.31272],[-74.80911,-46.31283],[-74.80905,-46.31286],[-74.809,-46.31289],[-74.80893,-46.3129],[-74.80874,-46.31286],[-74.80863,-46.31285],[-74.80853,-46.31288],[-74.80841,-46.31293],[-74.80831,-46.31302],[-74.80828,-46.31306],[-74.80817,-46.31314],[-74.80803,-46.31319],[-74.80793,-46.31328],[-74.80784,-46.3134],[-74.80772,-46.31348],[-74.80768,-46.31352],[-74.80763,-46.31354],[-74.80756,-46.3136],[-74.80753,-46.31363],[-74.80743,-46.31378],[-74.8073,-46.31389],[-74.80714,-46.31398],[-74.80705,-46.31402],[-74.80697,-46.31406],[-74.8069,-46.31411],[-74.80685,-46.31417],[-74.80673,-46.31435],[-74.80671,-46.31439],[-74.80667,-46.31442],[-74.80665,-46.31445],[-74.8066,-46.31451],[-74.80657,-46.31457],[-74.80656,-46.31461],[-74.80655,-46.31475],[-74.80653,-46.3149],[-74.80652,-46.31494],[-74.80645,-46.31505],[-74.80618,-46.31533],[-74.80611,-46.31538],[-74.80603,-46.31543],[-74.80594,-46.31547],[-74.80583,-46.31549],[-74.80565,-46.31549],[-74.80553,-46.31548],[-74.80526,-46.31547],[-74.80515,-46.31546],[-74.80498,-46.31545],[-74.80488,-46.31548],[-74.80478,-46.31551],[-74.80464,-46.31555],[-74.80443,-46.31558],[-74.80429,-46.31564],[-74.8042,-46.31568],[-74.80415,-46.31569],[-74.80397,-46.3157],[-74.80385,-46.31572],[-74.80381,-46.31575],[-74.80375,-46.3159],[-74.80372,-46.31593],[-74.80368,-46.31595],[-74.80352,-46.31601],[-74.80342,-46.31604],[-74.80337,-46.31604],[-74.80316,-46.31601],[-74.80305,-46.31603],[-74.80281,-46.31603],[-74.80276,-46.31605],[-74.80264,-46.31612],[-74.80245,-46.31622],[-74.80241,-46.31623],[-74.80228,-46.31625],[-74.8021,-46.31627],[-74.8019,-46.31627],[-74.8018,-46.31624],[-74.80163,-46.3162],[-74.80157,-46.31618],[-74.8015,-46.31613],[-74.80135,-46.31601],[-74.8013,-46.31595],[-74.80122,-46.31589],[-74.80118,-46.31587],[-74.80112,-46.31586],[-74.80101,-46.31586],[-74.80092,-46.31588],[-74.80088,-46.31591],[-74.80076,-46.31592],[-74.80071,-46.31595],[-74.80067,-46.31598],[-74.80064,-46.31601],[-74.80062,-46.31609],[-74.8006,-46.31612],[-74.80057,-46.31615],[-74.80052,-46.31617],[-74.80039,-46.3162],[-74.80029,-46.3162],[-74.80008,-46.31614],[-74.8,-46.31612],[-74.79989,-46.31613],[-74.79979,-46.31615],[-74.79973,-46.31617],[-74.79965,-46.31622],[-74.79956,-46.31632],[-74.79945,-46.3164],[-74.79941,-46.31642],[-74.79923,-46.31646],[-74.79919,-46.31648],[-74.79912,-46.31657],[-74.7991,-46.31662],[-74.79904,-46.31668],[-74.79899,-46.3167],[-74.79887,-46.31673],[-74.79881,-46.31672],[-74.79866,-46.3167],[-74.79857,-46.31666],[-74.79845,-46.31657],[-74.79834,-46.31645],[-74.79823,-46.31638],[-74.79809,-46.31634],[-74.79798,-46.31632],[-74.79781,-46.31626],[-74.79759,-46.31616],[-74.79745,-46.31611],[-74.79735,-46.3161],[-74.79719,-46.31606],[-74.79709,-46.31602],[-74.79706,-46.316],[-74.79704,-46.31597],[-74.79702,-46.31594],[-74.79702,-46.31587],[-74.79701,-46.31584],[-74.79698,-46.31581],[-74.79663,-46.3156],[-74.79643,-46.31551],[-74.79613,-46.31544],[-74.79604,-46.31541],[-74.79587,-46.31534],[-74.79537,-46.31526],[-74.7951,-46.31517],[-74.79497,-46.3151],[-74.79488,-46.31503],[-74.7948,-46.31499],[-74.79472,-46.31495],[-74.79451,-46.31489],[-74.79447,-46.31489],[-74.79436,-46.31485],[-74.79414,-46.31479],[-74.79387,-46.31471],[-74.79374,-46.31461],[-74.79366,-46.31451],[-74.79362,-46.31448],[-74.79349,-46.31441],[-74.79332,-46.31436],[-74.79319,-46.31435],[-74.79301,-46.31435],[-74.79295,-46.31436],[-74.79286,-46.31439],[-74.79268,-46.31438],[-74.79262,-46.31438],[-74.79254,-46.31435],[-74.79242,-46.31428],[-74.79221,-46.31419],[-74.79198,-46.31413],[-74.79168,-46.3141],[-74.79149,-46.31406],[-74.79125,-46.31398],[-74.7911,-46.31394],[-74.79099,-46.31392],[-74.79084,-46.31389],[-74.79075,-46.31383],[-74.79054,-46.31378],[-74.79027,-46.3137],[-74.79024,-46.31368],[-74.79014,-46.31365],[-74.78988,-46.31361],[-74.78975,-46.31356],[-74.78959,-46.3135],[-74.78941,-46.31344],[-74.78918,-46.31341],[-74.7891,-46.31336],[-74.78905,-46.31333],[-74.78892,-46.31325],[-74.78863,-46.31317],[-74.78851,-46.31311],[-74.7884,-46.31303],[-74.78836,-46.31297],[-74.78834,-46.31293],[-74.78831,-46.3129],[-74.78814,-46.31278],[-74.78795,-46.31261],[-74.78787,-46.31256],[-74.78774,-46.31244],[-74.7876,-46.31239],[-74.78742,-46.31234],[-74.78697,-46.31227],[-74.78688,-46.31224],[-74.78683,-46.31223],[-74.78672,-46.31219],[-74.78666,-46.31213],[-74.78656,-46.3121],[-74.7864,-46.31202],[-74.78616,-46.31194],[-74.78604,-46.31192],[-74.78583,-46.31187],[-74.78576,-46.31182],[-74.78575,-46.31171],[-74.78576,-46.31169],[-74.78579,-46.31165],[-74.78585,-46.3116],[-74.78587,-46.31157],[-74.78593,-46.31142],[-74.78596,-46.3114],[-74.78615,-46.31131],[-74.78616,-46.31128],[-74.78615,-46.31124],[-74.78613,-46.31122],[-74.78607,-46.31116],[-74.78572,-46.31099],[-74.78561,-46.31095],[-74.78536,-46.3109],[-74.78524,-46.31086],[-74.78502,-46.31077],[-74.78493,-46.31072],[-74.78488,-46.31071],[-74.78471,-46.31071],[-74.78458,-46.3107],[-74.78444,-46.31065],[-74.78439,-46.31064],[-74.78427,-46.31064],[-74.78422,-46.31065],[-74.78406,-46.31076],[-74.78387,-46.31082],[-74.78383,-46.31085],[-74.7838,-46.31089],[-74.78369,-46.31097],[-74.78339,-46.31112],[-74.78322,-46.31118],[-74.78315,-46.31122],[-74.78308,-46.31129],[-74.78303,-46.31137],[-74.783,-46.3114],[-74.78292,-46.31145],[-74.7828,-46.31149],[-74.78275,-46.31149],[-74.7827,-46.31148],[-74.78262,-46.31139],[-74.78255,-46.31134],[-74.78248,-46.31134],[-74.78233,-46.31139],[-74.78227,-46.31139],[-74.78223,-46.3114],[-74.78219,-46.31143],[-74.78215,-46.31145],[-74.78211,-46.31152],[-74.78204,-46.31157],[-74.782,-46.3116],[-74.78198,-46.31163],[-74.78196,-46.31171],[-74.78196,-46.31182],[-74.78186,-46.31196],[-74.78184,-46.31199],[-74.78183,-46.31221],[-74.78181,-46.31225],[-74.78181,-46.31228],[-74.78179,-46.31236],[-74.78177,-46.3124],[-74.78164,-46.31248],[-74.78161,-46.31252],[-74.78159,-46.31255],[-74.78158,-46.31263],[-74.78153,-46.3127],[-74.78149,-46.31273],[-74.78144,-46.31275],[-74.7813,-46.31282],[-74.78127,-46.31285],[-74.78125,-46.31296],[-74.78121,-46.31299],[-74.78112,-46.31303],[-74.78097,-46.31309],[-74.78093,-46.31312],[-74.78089,-46.31322],[-74.78086,-46.31324],[-74.78071,-46.31328],[-74.78063,-46.31333],[-74.78051,-46.31336],[-74.78043,-46.31342],[-74.78041,-46.31345],[-74.78039,-46.3135],[-74.78039,-46.31364],[-74.78038,-46.31368],[-74.78033,-46.31374],[-74.78022,-46.31384],[-74.78018,-46.31391],[-74.78015,-46.31394],[-74.77994,-46.31406],[-74.77985,-46.31414],[-74.77981,-46.31422],[-74.77979,-46.3143],[-74.77978,-46.31437],[-74.77984,-46.31446],[-74.77986,-46.31449],[-74.77986,-46.31453],[-74.77982,-46.31463],[-74.77979,-46.31466],[-74.77977,-46.31469],[-74.77969,-46.31474],[-74.77963,-46.31476],[-74.77953,-46.31477],[-74.77947,-46.31476],[-74.77916,-46.3147],[-74.77911,-46.31468],[-74.77905,-46.31468],[-74.77889,-46.31469],[-74.77884,-46.31471],[-74.77879,-46.31477],[-74.77873,-46.31482],[-74.77868,-46.31484],[-74.77865,-46.31486],[-74.7786,-46.31492],[-74.77861,-46.31499],[-74.77865,-46.31508],[-74.77865,-46.31512],[-74.77864,-46.31515],[-74.77861,-46.31518],[-74.77851,-46.31528],[-74.77847,-46.3153],[-74.77846,-46.31532],[-74.77835,-46.3154],[-74.77821,-46.31552],[-74.77808,-46.31558],[-74.77786,-46.31562],[-74.77775,-46.31562],[-74.77765,-46.31564],[-74.77761,-46.31567],[-74.77754,-46.31572],[-74.77755,-46.31577],[-74.77762,-46.31585],[-74.77766,-46.31595],[-74.77771,-46.316],[-74.77784,-46.31604],[-74.77792,-46.31608],[-74.77795,-46.3161],[-74.77799,-46.31617],[-74.77799,-46.31624],[-74.77798,-46.31628],[-74.77793,-46.3164],[-74.77787,-46.31646],[-74.77783,-46.31652],[-74.77774,-46.31675],[-74.77765,-46.31684],[-74.77759,-46.31689],[-74.77755,-46.31692],[-74.77746,-46.31695],[-74.7774,-46.31695],[-74.77734,-46.31695],[-74.77728,-46.31694],[-74.7772,-46.31691],[-74.77712,-46.31686],[-74.77709,-46.31683],[-74.77705,-46.31681],[-74.777,-46.31681],[-74.7769,-46.31681],[-74.77679,-46.31684],[-74.77668,-46.31688],[-74.77658,-46.31692],[-74.77651,-46.31697],[-74.77643,-46.317],[-74.7763,-46.31703],[-74.77613,-46.31705],[-74.77599,-46.3171],[-74.7758,-46.31719],[-74.77564,-46.31723],[-74.77554,-46.31724],[-74.77547,-46.31729],[-74.77545,-46.31732],[-74.77545,-46.31739],[-74.77547,-46.31742],[-74.77556,-46.3175],[-74.77562,-46.31755],[-74.77565,-46.31757],[-74.77573,-46.3176],[-74.7758,-46.31765],[-74.77582,-46.31768],[-74.77581,-46.31775],[-74.77582,-46.3178],[-74.77583,-46.31784],[-74.77585,-46.31787],[-74.77594,-46.31791],[-74.77608,-46.31795],[-74.77619,-46.31801],[-74.77625,-46.31815],[-74.77626,-46.31818],[-74.77624,-46.31826],[-74.77621,-46.31829],[-74.77617,-46.31831],[-74.77594,-46.31838],[-74.7758,-46.31844],[-74.77569,-46.31847],[-74.77558,-46.3185],[-74.77551,-46.31855],[-74.7755,-46.31858],[-74.77552,-46.31862],[-74.77555,-46.31864],[-74.77567,-46.3187],[-74.77578,-46.31877],[-74.77593,-46.31885],[-74.77598,-46.31892],[-74.776,-46.31896],[-74.77597,-46.319],[-74.77579,-46.31907],[-74.77571,-46.31911],[-74.77565,-46.31912],[-74.77555,-46.31912],[-74.77539,-46.31915],[-74.7753,-46.31919],[-74.77516,-46.31924],[-74.77513,-46.31927],[-74.77509,-46.31934],[-74.77509,-46.31941],[-74.77506,-46.31947],[-74.77502,-46.31954],[-74.77498,-46.31961],[-74.77497,-46.31969],[-74.77496,-46.31977],[-74.77491,-46.31982],[-74.77485,-46.31987],[-74.77476,-46.31991],[-74.77468,-46.31995],[-74.77457,-46.31997],[-74.77447,-46.32002],[-74.77439,-46.32007],[-74.77432,-46.3201],[-74.77426,-46.32018],[-74.77417,-46.32024],[-74.77414,-46.32031],[-74.77401,-46.32042],[-74.77398,-46.32049],[-74.77398,-46.32057],[-74.774,-46.32064],[-74.774,-46.32067],[-74.77397,-46.32086],[-74.77397,-46.32094],[-74.77408,-46.32106],[-74.77409,-46.3211],[-74.77408,-46.32129],[-74.7741,-46.32137],[-74.7741,-46.32141],[-74.77409,-46.32145],[-74.77404,-46.32152],[-74.77388,-46.32166],[-74.77384,-46.32173],[-74.77377,-46.32189],[-74.77374,-46.32192],[-74.77366,-46.32196],[-74.77354,-46.32209],[-74.7735,-46.32211],[-74.77343,-46.32221],[-74.77339,-46.32223],[-74.7733,-46.32227],[-74.77323,-46.32233],[-74.77324,-46.32243],[-74.77323,-46.32247],[-74.7731,-46.32253],[-74.77298,-46.3226],[-74.77291,-46.32266],[-74.77288,-46.3227],[-74.77282,-46.32276],[-74.77277,-46.32278],[-74.77261,-46.32281],[-74.77256,-46.32282],[-74.77251,-46.32285],[-74.77247,-46.32291],[-74.77243,-46.323],[-74.77235,-46.32306],[-74.77231,-46.32308],[-74.77212,-46.32314],[-74.77196,-46.32314],[-74.77191,-46.32312],[-74.77185,-46.32306],[-74.77169,-46.32303],[-74.77159,-46.32303],[-74.7714,-46.32305],[-74.76957,-46.32436],[-74.76743,-46.32528],[-74.76507,-46.32579],[-74.76388,-46.32643],[-74.7627,-46.32709],[-74.76169,-46.3278],[-74.76102,-46.32862],[-74.75968,-46.3301],[-74.75771,-46.33071],[-74.75366,-46.33107],[-74.75268,-46.33116],[-74.75147,-46.33221],[-74.74999,-46.33378],[-74.74668,-46.33609],[-74.7448,-46.33781],[-74.74319,-46.33941],[-74.74011,-46.34138],[-74.73987,-46.3432],[-74.7392,-46.34391],[-74.73787,-46.34369],[-74.73715,-46.34335],[-74.73626,-46.34323],[-74.73542,-46.34341],[-74.7335,-46.34378],[-74.73189,-46.34393],[-74.7302,-46.34442],[-74.72863,-46.34534],[-74.72725,-46.34617],[-74.72537,-46.34703],[-74.7242,-46.34804],[-74.72373,-46.35292],[-74.72239,-46.35354],[-74.7199,-46.35341],[-74.71865,-46.3539],[-74.71766,-46.3547],[-74.71507,-46.35506],[-74.714,-46.35617],[-74.71373,-46.35672],[-74.71265,-46.35746],[-74.70984,-46.35829],[-74.70797,-46.35855],[-74.70748,-46.3585],[-74.7071,-46.35852],[-74.70665,-46.35876],[-74.70643,-46.35908],[-74.70637,-46.35939],[-74.70617,-46.35961],[-74.70567,-46.35981],[-74.70011,-46.36075],[-74.69529,-46.36216],[-74.68894,-46.36479],[-74.67769,-46.36711],[-74.66519,-46.36997],[-74.65898,-46.37175],[-74.65374,-46.37417],[-74.64823,-46.37832],[-74.64307,-46.38309],[-74.63985,-46.38493],[-74.63196,-46.39021],[-74.62048,-46.39845],[-74.61025,-46.40743],[-74.58615,-46.43142],[-74.55123,-46.46413],[-74.53257,-46.47369],[-74.53122,-46.47429],[-74.52603,-46.47564],[-74.50677,-46.48056],[-74.48189,-46.4844],[-74.4724,-46.48553],[-74.45633,-46.4841],[-74.43813,-46.48117],[-74.40632,-46.4636],[-74.3784,-46.45184],[-74.35907,-46.43976],[-74.30604,-46.42451],[-74.25014,-46.39946],[-74.19501,-46.37365],[-74.15084,-46.35802],[-74.13214,-46.35913],[-74.12892,-46.35873],[-74.12728,-46.35856],[-74.12645,-46.35842],[-74.1254,-46.35831],[-74.12487,-46.35827],[-74.12439,-46.35817],[-74.12367,-46.358],[-74.12323,-46.35787],[-74.12218,-46.35758],[-74.12157,-46.35752],[-74.12108,-46.35747],[-74.12007,-46.35736],[-74.11945,-46.35741],[-74.11882,-46.3575],[-74.11819,-46.35765],[-74.1179,-46.35778],[-74.11774,-46.35793],[-74.11755,-46.35812],[-74.11736,-46.35827],[-74.11708,-46.35851],[-74.11682,-46.35861],[-74.11642,-46.3587],[-74.11623,-46.35872],[-74.11567,-46.35871],[-74.11535,-46.35872],[-74.11517,-46.35871],[-74.11499,-46.35866],[-74.1148,-46.35854],[-74.11464,-46.35839],[-74.11449,-46.3582],[-74.11448,-46.35797],[-74.1144,-46.35782],[-74.11428,-46.35769],[-74.11412,-46.35766],[-74.11389,-46.35771],[-74.11372,-46.35776],[-74.11347,-46.3578],[-74.11324,-46.35778],[-74.11291,-46.35769],[-74.11272,-46.35759],[-74.11245,-46.35739],[-74.11219,-46.35725],[-74.11185,-46.35716],[-74.11129,-46.35703],[-74.11058,-46.35685],[-74.11009,-46.35667],[-74.10948,-46.35645],[-74.10814,-46.35607],[-74.10733,-46.35582],[-74.1064,-46.35544],[-74.10584,-46.35515],[-74.10541,-46.35482],[-74.10466,-46.35424],[-74.10381,-46.35385],[-74.10328,-46.35359],[-74.10224,-46.35296],[-74.10122,-46.35209],[-74.10099,-46.35193],[-74.10058,-46.35163],[-74.10035,-46.35149],[-74.1,-46.35132],[-74.09962,-46.35119],[-74.09928,-46.3511],[-74.09889,-46.35109],[-74.09836,-46.3511],[-74.0978,-46.35111],[-74.09757,-46.35112],[-74.09725,-46.35113],[-74.0969,-46.35119],[-74.09672,-46.35126],[-74.0966,-46.35136],[-74.09656,-46.35149],[-74.09667,-46.35171],[-74.09669,-46.35185],[-74.09673,-46.35202],[-74.09668,-46.35222],[-74.09656,-46.35236],[-74.09626,-46.35261],[-74.09594,-46.35276],[-74.09566,-46.35282],[-74.09543,-46.35282],[-74.09517,-46.35278],[-74.09483,-46.35257],[-74.09463,-46.35237],[-74.09445,-46.35219],[-74.09416,-46.35193],[-74.09369,-46.35157],[-74.0932,-46.35125],[-74.09284,-46.351],[-74.09222,-46.35053],[-74.09185,-46.35025],[-74.09162,-46.34996],[-74.09147,-46.34978],[-74.09119,-46.34953],[-74.0909,-46.34933],[-74.09046,-46.34905],[-74.08997,-46.34882],[-74.08961,-46.3486],[-74.08874,-46.34827],[-74.08785,-46.34792],[-74.08708,-46.34756],[-74.08643,-46.34728],[-74.08596,-46.34706],[-74.08548,-46.34681],[-74.08499,-46.34654],[-74.0845,-46.34619],[-74.08368,-46.34565],[-74.08371,-46.34579],[-74.08371,-46.34589],[-74.08368,-46.34601],[-74.08362,-46.34611],[-74.08335,-46.34622],[-74.08328,-46.34627],[-74.08324,-46.34634],[-74.08322,-46.34637],[-74.08323,-46.34648],[-74.08328,-46.3467],[-74.08335,-46.34676],[-74.08343,-46.3468],[-74.08348,-46.34681],[-74.08365,-46.34681],[-74.08372,-46.34682],[-74.08384,-46.34685],[-74.0839,-46.34688],[-74.08395,-46.34693],[-74.08399,-46.34702],[-74.08402,-46.34706],[-74.08414,-46.34716],[-74.08438,-46.34732],[-74.08445,-46.34742],[-74.08446,-46.34746],[-74.08446,-46.34753],[-74.08439,-46.34776],[-74.0844,-46.34791],[-74.08445,-46.34798],[-74.08449,-46.34801],[-74.08453,-46.34801],[-74.08494,-46.34802],[-74.08508,-46.34805],[-74.08519,-46.34809],[-74.08528,-46.3481],[-74.08539,-46.34809],[-74.08547,-46.34806],[-74.08567,-46.34804],[-74.08591,-46.34804],[-74.08618,-46.34808],[-74.08622,-46.34809],[-74.08636,-46.3482],[-74.08652,-46.34842],[-74.08654,-46.34845],[-74.0866,-46.34854],[-74.0866,-46.3487],[-74.08658,-46.34877],[-74.08649,-46.34888],[-74.08639,-46.34896],[-74.08628,-46.34904],[-74.08618,-46.34907],[-74.08572,-46.34908],[-74.08565,-46.34912],[-74.08561,-46.34916],[-74.0856,-46.34919],[-74.08559,-46.34923],[-74.08564,-46.34935],[-74.08564,-46.34942],[-74.08561,-46.34946],[-74.08556,-46.34949],[-74.08552,-46.34956],[-74.0855,-46.3496],[-74.08549,-46.34968],[-74.08551,-46.34973],[-74.08562,-46.34988],[-74.08562,-46.34991],[-74.08568,-46.35001],[-74.08573,-46.35008],[-74.08575,-46.35019],[-74.08574,-46.35026],[-74.08567,-46.3504],[-74.08568,-46.35047],[-74.08569,-46.35052],[-74.08569,-46.35066],[-74.08568,-46.35069],[-74.08564,-46.35076],[-74.08542,-46.351],[-74.08537,-46.35108],[-74.08534,-46.35117],[-74.08534,-46.35125],[-74.08535,-46.35128],[-74.08536,-46.35132],[-74.08542,-46.35142],[-74.08545,-46.35145],[-74.08548,-46.35147],[-74.08561,-46.3515],[-74.08583,-46.3515],[-74.08594,-46.35151],[-74.08605,-46.35151],[-74.08615,-46.35152],[-74.08625,-46.35155],[-74.0863,-46.3516],[-74.08633,-46.35164],[-74.08633,-46.35168],[-74.08626,-46.35174],[-74.08603,-46.35191],[-74.08598,-46.35197],[-74.08589,-46.35215],[-74.08588,-46.35233],[-74.08587,-46.35243],[-74.08582,-46.3525],[-74.08567,-46.35264],[-74.08558,-46.3527],[-74.08545,-46.35281],[-74.08542,-46.35284],[-74.08542,-46.35288],[-74.08542,-46.35298],[-74.08544,-46.35309],[-74.08549,-46.35323],[-74.08552,-46.35344],[-74.08554,-46.35347],[-74.08554,-46.35355],[-74.08555,-46.35358],[-74.08564,-46.3537],[-74.0857,-46.35375],[-74.08587,-46.35387],[-74.08589,-46.35389],[-74.0859,-46.35393],[-74.0859,-46.35396],[-74.08583,-46.35414],[-74.08574,-46.3543],[-74.08574,-46.35433],[-74.08575,-46.35437],[-74.08589,-46.35468],[-74.08599,-46.35481],[-74.08619,-46.35504],[-74.08639,-46.35531],[-74.08644,-46.35539],[-74.08677,-46.35581],[-74.08691,-46.35592],[-74.08709,-46.35601],[-74.08729,-46.35618],[-74.08737,-46.35625],[-74.08749,-46.35645],[-74.08755,-46.35659],[-74.08769,-46.35678],[-74.08774,-46.35689],[-74.08774,-46.35696],[-74.08773,-46.357],[-74.08761,-46.35726],[-74.08755,-46.35735],[-74.08753,-46.35745],[-74.08757,-46.35763],[-74.08766,-46.35788],[-74.08764,-46.35812],[-74.08761,-46.35835],[-74.08739,-46.35876],[-74.08734,-46.35883],[-74.08725,-46.35905],[-74.08723,-46.35932],[-74.08724,-46.35951],[-74.08727,-46.35967],[-74.08744,-46.35986],[-74.08759,-46.36005],[-74.08764,-46.36015],[-74.08769,-46.36025],[-74.08769,-46.36038],[-74.08768,-46.36041],[-74.08764,-46.36048],[-74.08748,-46.36069],[-74.0874,-46.36085],[-74.08731,-46.36096],[-74.08724,-46.36115],[-74.08718,-46.36129],[-74.0871,-46.36162],[-74.08711,-46.36177],[-74.08719,-46.36192],[-74.08725,-46.36199],[-74.08729,-46.36205],[-74.0873,-46.3621],[-74.08731,-46.36219],[-74.0873,-46.36223],[-74.08726,-46.3623],[-74.08723,-46.36243],[-74.08719,-46.36263],[-74.08717,-46.36289],[-74.08715,-46.36296],[-74.08709,-46.36307],[-74.08707,-46.3631],[-74.08702,-46.36317],[-74.08697,-46.36328],[-74.08697,-46.36343],[-74.08699,-46.36351],[-74.08703,-46.36364],[-74.08705,-46.36367],[-74.0871,-46.36385],[-74.0871,-46.36392],[-74.08709,-46.36396],[-74.08697,-46.36414],[-74.08694,-46.36417],[-74.08686,-46.3643],[-74.08686,-46.36451],[-74.08678,-46.36463],[-74.08656,-46.3648],[-74.08653,-46.36484],[-74.08651,-46.36491],[-74.08651,-46.36495],[-74.08654,-46.36502],[-74.08659,-46.36508],[-74.08666,-46.36514],[-74.08673,-46.36518],[-74.08679,-46.36523],[-74.08688,-46.36534],[-74.08692,-46.3654],[-74.08692,-46.36547],[-74.08691,-46.36551],[-74.08687,-46.36557],[-74.08662,-46.3659],[-74.08655,-46.36605],[-74.08654,-46.36609],[-74.08652,-46.36612],[-74.08638,-46.36623],[-74.08626,-46.36629],[-74.08621,-46.3663],[-74.08612,-46.36634],[-74.08605,-46.36638],[-74.08592,-46.36649],[-74.08589,-46.36656],[-74.08588,-46.36675],[-74.08586,-46.36683],[-74.08584,-46.36688],[-74.08581,-46.36691],[-74.08577,-46.36693],[-74.08533,-46.36696],[-74.08527,-46.36695],[-74.08523,-46.36695],[-74.08514,-46.36696],[-74.08505,-46.36701],[-74.08501,-46.36706],[-74.08499,-46.3671],[-74.08499,-46.36717],[-74.08501,-46.36728],[-74.08501,-46.36736],[-74.08501,-46.3674],[-74.08499,-46.36743],[-74.08496,-46.36746],[-74.08488,-46.3675],[-74.08467,-46.36755],[-74.08464,-46.36756],[-74.08447,-46.36767],[-74.08442,-46.36768],[-74.08432,-46.36771],[-74.08426,-46.36775],[-74.08419,-46.36782],[-74.08411,-46.36794],[-74.08404,-46.36809],[-74.084,-46.36814],[-74.08387,-46.36827],[-74.08372,-46.3684],[-74.08368,-46.36846],[-74.08367,-46.36849],[-74.08369,-46.36852],[-74.08374,-46.36858],[-74.08379,-46.3686],[-74.0839,-46.36862],[-74.08403,-46.36867],[-74.08421,-46.36877],[-74.08425,-46.36879],[-74.08429,-46.36885],[-74.08434,-46.36894],[-74.08435,-46.36901],[-74.08433,-46.36904],[-74.08426,-46.36909],[-74.08422,-46.3691],[-74.08417,-46.3691],[-74.08413,-46.36912],[-74.08409,-46.36914],[-74.08407,-46.36917],[-74.08406,-46.3692],[-74.08409,-46.36927],[-74.08425,-46.36941],[-74.0843,-46.36943],[-74.08439,-46.36946],[-74.08443,-46.36947],[-74.08453,-46.36955],[-74.08476,-46.36964],[-74.08491,-46.36967],[-74.08503,-46.36969],[-74.0851,-46.36969],[-74.0852,-46.3697],[-74.08529,-46.36974],[-74.0854,-46.36981],[-74.08551,-46.36989],[-74.08555,-46.36993],[-74.08561,-46.37007],[-74.08576,-46.37023],[-74.08578,-46.37026],[-74.08579,-46.37044],[-74.08576,-46.3705],[-74.08566,-46.37062],[-74.08554,-46.37077],[-74.08546,-46.37088],[-74.08537,-46.37095],[-74.08535,-46.37098],[-74.08533,-46.37104],[-74.08526,-46.37109],[-74.08519,-46.37114],[-74.08514,-46.37115],[-74.08499,-46.37126],[-74.08495,-46.37128],[-74.08491,-46.3713],[-74.08479,-46.37142],[-74.08478,-46.37145],[-74.08478,-46.37148],[-74.0848,-46.37151],[-74.08486,-46.37156],[-74.08513,-46.3717],[-74.08516,-46.37172],[-74.08516,-46.37182],[-74.08511,-46.37188],[-74.08499,-46.37198],[-74.08493,-46.37202],[-74.08484,-46.37206],[-74.08475,-46.37207],[-74.08454,-46.37206],[-74.08439,-46.37208],[-74.08427,-46.37214],[-74.08406,-46.37232],[-74.08385,-46.37246],[-74.08369,-46.37254],[-74.08342,-46.37264],[-74.08334,-46.37267],[-74.08329,-46.37268],[-74.0832,-46.37268],[-74.0831,-46.37267],[-74.08305,-46.37267],[-74.083,-46.37268],[-74.08295,-46.37269],[-74.08284,-46.37275],[-74.08282,-46.37279],[-74.08281,-46.37282],[-74.08282,-46.3729],[-74.08283,-46.37293],[-74.08283,-46.37304],[-74.08282,-46.37308],[-74.08276,-46.37318],[-74.08266,-46.37329],[-74.08256,-46.37343],[-74.08255,-46.37346],[-74.08249,-46.37356],[-74.08248,-46.37359],[-74.08246,-46.37382],[-74.08241,-46.37405],[-74.08236,-46.37411],[-74.08229,-46.37426],[-74.08228,-46.37429],[-74.08223,-46.37439],[-74.08223,-46.37446],[-74.08226,-46.37453],[-74.08233,-46.37463],[-74.08239,-46.37469],[-74.08242,-46.37471],[-74.08256,-46.37475],[-74.08266,-46.37479],[-74.08273,-46.37484],[-74.08275,-46.37487],[-74.08275,-46.37494],[-74.0827,-46.375],[-74.08267,-46.37502],[-74.08252,-46.37515],[-74.08247,-46.37521],[-74.08244,-46.37528],[-74.08241,-46.37536],[-74.0824,-46.37539],[-74.0824,-46.37554],[-74.08244,-46.37569],[-74.08246,-46.37582],[-74.08246,-46.37606],[-74.08247,-46.37609],[-74.08249,-46.37612],[-74.08253,-46.37615],[-74.08258,-46.37617],[-74.08267,-46.37621],[-74.08282,-46.37624],[-74.08295,-46.37625],[-74.08324,-46.37628],[-74.08348,-46.37634],[-74.08353,-46.37636],[-74.08356,-46.37639],[-74.08358,-46.37646],[-74.08357,-46.37656],[-74.08352,-46.37662],[-74.08348,-46.37678],[-74.0835,-46.37692],[-74.08359,-46.3772],[-74.08363,-46.37734],[-74.08369,-46.37743],[-74.08371,-46.3775],[-74.08371,-46.37764],[-74.0837,-46.37768],[-74.0837,-46.37784],[-74.08371,-46.37787],[-74.08376,-46.37792],[-74.08396,-46.37802],[-74.08415,-46.37809],[-74.08427,-46.37801],[-74.08437,-46.37798],[-74.08456,-46.37791],[-74.08467,-46.37789],[-74.08499,-46.37789],[-74.08516,-46.37787],[-74.08527,-46.37788],[-74.08536,-46.37789],[-74.08547,-46.37789],[-74.08557,-46.37788],[-74.08562,-46.37786],[-74.08578,-46.37759],[-74.08583,-46.37752],[-74.08587,-46.3775],[-74.08618,-46.37744],[-74.0863,-46.37742],[-74.08642,-46.37742],[-74.08655,-46.37744],[-74.0867,-46.37752],[-74.08702,-46.37765],[-74.08709,-46.37771],[-74.08714,-46.37777],[-74.0872,-46.37791],[-74.08724,-46.37797],[-74.0874,-46.37811],[-74.08768,-46.37834],[-74.08783,-46.37849],[-74.08797,-46.37855],[-74.0881,-46.37862],[-74.08827,-46.3787],[-74.08842,-46.37875],[-74.08867,-46.3788],[-74.08883,-46.37885],[-74.08902,-46.37893],[-74.08937,-46.37905],[-74.08953,-46.37914],[-74.0896,-46.3792],[-74.08965,-46.37931],[-74.08965,-46.37935],[-74.08967,-46.37942],[-74.08967,-46.37945],[-74.08964,-46.37952],[-74.08964,-46.37966],[-74.08966,-46.37969],[-74.08967,-46.37976],[-74.08967,-46.37992],[-74.08969,-46.37996],[-74.08967,-46.38],[-74.08966,-46.38006],[-74.08972,-46.38012],[-74.08981,-46.38017],[-74.08991,-46.3802],[-74.09006,-46.38023],[-74.09016,-46.38026],[-74.09024,-46.38031],[-74.09026,-46.38034],[-74.09026,-46.38038],[-74.09026,-46.3805],[-74.09024,-46.38054],[-74.09025,-46.38061],[-74.09032,-46.38073],[-74.09033,-46.38084],[-74.09035,-46.38087],[-74.09038,-46.3809],[-74.0905,-46.38097],[-74.09079,-46.3811],[-74.09098,-46.38123],[-74.09105,-46.38128],[-74.09114,-46.38141],[-74.09115,-46.38148],[-74.0911,-46.38162],[-74.09102,-46.38171],[-74.09097,-46.38175],[-74.0909,-46.3818],[-74.09087,-46.38182],[-74.09078,-46.38197],[-74.09078,-46.38204],[-74.09079,-46.38207],[-74.09083,-46.38217],[-74.09095,-46.3823],[-74.09102,-46.38239],[-74.09112,-46.38253],[-74.09121,-46.3827],[-74.09123,-46.38281],[-74.09123,-46.38299],[-74.09117,-46.38311],[-74.0911,-46.38319],[-74.09107,-46.38328],[-74.09106,-46.38338],[-74.09102,-46.38344],[-74.09096,-46.38348],[-74.09094,-46.38354],[-74.09094,-46.38361],[-74.0909,-46.38366],[-74.09084,-46.38375],[-74.09084,-46.38379],[-74.09093,-46.38392],[-74.09094,-46.38395],[-74.09093,-46.38408],[-74.0909,-46.38419],[-74.09075,-46.38434],[-74.09071,-46.38436],[-74.09068,-46.38439],[-74.09062,-46.38453],[-74.09062,-46.38463],[-74.09058,-46.38477],[-74.09056,-46.3848],[-74.09048,-46.38488],[-74.09044,-46.38494],[-74.09043,-46.38504],[-74.09043,-46.38514],[-74.09044,-46.38517],[-74.09058,-46.38532],[-74.09078,-46.38559],[-74.09084,-46.38565],[-74.09091,-46.3857],[-74.09094,-46.38572],[-74.09097,-46.3858],[-74.09102,-46.38587],[-74.09106,-46.38589],[-74.09116,-46.38591],[-74.09138,-46.38591],[-74.0915,-46.38598],[-74.09157,-46.38603],[-74.09168,-46.38617],[-74.09168,-46.38623],[-74.09166,-46.38634],[-74.09165,-46.38637],[-74.09131,-46.3867],[-74.09116,-46.38691],[-74.09112,-46.38701],[-74.09112,-46.38716],[-74.09115,-46.38722],[-74.09118,-46.38737],[-74.09117,-46.38759],[-74.09114,-46.38776],[-74.09103,-46.38799],[-74.09099,-46.38806],[-74.09088,-46.38817],[-74.09083,-46.38824],[-74.0908,-46.38827],[-74.09067,-46.38845],[-74.09064,-46.38847],[-74.09059,-46.38853],[-74.0905,-46.38866],[-74.09039,-46.38886],[-74.0902,-46.3891],[-74.09005,-46.38931],[-74.08995,-46.38942],[-74.08988,-46.38951],[-74.08977,-46.3896],[-74.0895,-46.38986],[-74.08942,-46.38993],[-74.08935,-46.39002],[-74.08926,-46.39018],[-74.08914,-46.39035],[-74.08907,-46.39042],[-74.0888,-46.3906],[-74.08874,-46.39066],[-74.08856,-46.39076],[-74.08853,-46.39079],[-74.0883,-46.39092],[-74.08823,-46.39096],[-74.08815,-46.39105],[-74.08807,-46.39119],[-74.088,-46.39135],[-74.08795,-46.39141],[-74.08777,-46.39153],[-74.08749,-46.39169],[-74.08718,-46.39186],[-74.08704,-46.39192],[-74.08677,-46.39199],[-74.08625,-46.39207],[-74.08585,-46.39209],[-74.08572,-46.39211],[-74.0856,-46.39216],[-74.08556,-46.39219],[-74.08554,-46.39222],[-74.08545,-46.39234],[-74.0854,-46.39239],[-74.08534,-46.39252],[-74.08532,-46.39259],[-74.0853,-46.39282],[-74.08528,-46.39288],[-74.0852,-46.39299],[-74.08506,-46.39309],[-74.085,-46.39311],[-74.08494,-46.39315],[-74.08471,-46.39323],[-74.08458,-46.3933],[-74.08422,-46.39354],[-74.08416,-46.39361],[-74.08411,-46.3937],[-74.08401,-46.39382],[-74.08395,-46.39388],[-74.08384,-46.39395],[-74.08368,-46.394],[-74.08357,-46.39402],[-74.08336,-46.39404],[-74.08314,-46.39404],[-74.08284,-46.39401],[-74.08267,-46.39399],[-74.08251,-46.39402],[-74.08235,-46.39408],[-74.08222,-46.39425],[-74.08209,-46.3944],[-74.08207,-46.39443],[-74.08196,-46.39472],[-74.08192,-46.3948],[-74.08181,-46.39497],[-74.08171,-46.39512],[-74.08165,-46.39517],[-74.0816,-46.39526],[-74.08156,-46.39548],[-74.08156,-46.39565],[-74.0816,-46.39583],[-74.08161,-46.3959],[-74.08159,-46.39601],[-74.08153,-46.3961],[-74.0815,-46.39613],[-74.08134,-46.3962],[-74.08125,-46.39625],[-74.08115,-46.39628],[-74.08109,-46.39629],[-74.08083,-46.3964],[-74.08073,-46.3964],[-74.08048,-46.39644],[-74.08036,-46.39647],[-74.08025,-46.39651],[-74.07988,-46.39663],[-74.07959,-46.3967],[-74.07902,-46.39679],[-74.07885,-46.39682],[-74.07869,-46.39692],[-74.07855,-46.397],[-74.0782,-46.39721],[-74.07807,-46.39731],[-74.078,-46.39737],[-74.07789,-46.39752],[-74.07757,-46.39778],[-74.07742,-46.39786],[-74.07735,-46.3979],[-74.07711,-46.39798],[-74.07699,-46.398],[-74.07673,-46.39803],[-74.07664,-46.39803],[-74.0764,-46.39799],[-74.07606,-46.39798],[-74.07591,-46.39799],[-74.07576,-46.39802],[-74.07567,-46.39803],[-74.0753,-46.39796],[-74.07493,-46.39791],[-74.07475,-46.39788],[-74.07456,-46.39786],[-74.07435,-46.39781],[-74.07412,-46.39774],[-74.07395,-46.39767],[-74.07358,-46.39759],[-74.07343,-46.39753],[-74.07322,-46.39744],[-74.07295,-46.39734],[-74.07273,-46.39726],[-74.00368,-46.42469],[-73.99873,-46.42544],[-73.99424,-46.42688],[-73.97364,-46.43016],[-73.96535,-46.43416],[-73.96425,-46.43588],[-73.95708,-46.43729],[-73.95078,-46.43964],[-73.94499,-46.44373],[-73.94321,-46.44541],[-73.9398,-46.44661],[-73.93507,-46.45052],[-73.93327,-46.45181],[-73.93321,-46.45201],[-73.93288,-46.45222],[-73.93262,-46.45258],[-73.93238,-46.45286],[-73.93236,-46.45317],[-73.93231,-46.45355],[-73.93232,-46.4538],[-73.93233,-46.45402],[-73.93253,-46.45417],[-73.93274,-46.45425],[-73.93307,-46.45422],[-73.93335,-46.45416],[-73.93377,-46.45414],[-73.93435,-46.45408],[-73.93503,-46.45399],[-73.93563,-46.45395],[-73.93618,-46.45391],[-73.93655,-46.45398],[-73.93681,-46.45408],[-73.93693,-46.45425],[-73.9369,-46.45442],[-73.93678,-46.45464],[-73.93655,-46.4551],[-73.93642,-46.45533],[-73.93642,-46.45555],[-73.93659,-46.45572],[-73.93673,-46.45583],[-73.93694,-46.45601],[-73.93708,-46.45623],[-73.9371,-46.4564],[-73.93701,-46.45668],[-73.93678,-46.45711],[-73.93666,-46.45737],[-73.93657,-46.45763],[-73.93655,-46.45785],[-73.9366,-46.45813],[-73.93684,-46.45841],[-73.93716,-46.45861],[-73.93778,-46.45906],[-73.93803,-46.45944],[-73.93808,-46.45959],[-73.93804,-46.45987],[-73.93789,-46.46035],[-73.93783,-46.46074],[-73.93777,-46.46109],[-73.93775,-46.46149],[-73.93782,-46.46183],[-73.938,-46.46219],[-73.93816,-46.46267],[-73.93814,-46.4628],[-73.93807,-46.46295],[-73.93793,-46.46306],[-73.93763,-46.46315],[-73.9373,-46.46316],[-73.93696,-46.46313],[-73.93672,-46.46312],[-73.93642,-46.46309],[-73.93613,-46.463],[-73.93564,-46.46278],[-73.93545,-46.46271],[-73.93523,-46.46266],[-73.93512,-46.46264],[-73.93501,-46.46264],[-73.93453,-46.46269],[-73.93432,-46.46275],[-73.93383,-46.46294],[-73.93333,-46.46317],[-73.93313,-46.46325],[-73.93299,-46.46328],[-73.93289,-46.46328],[-73.93265,-46.46325],[-73.93244,-46.4632],[-73.93201,-46.46305],[-73.93194,-46.463],[-73.93163,-46.46286],[-73.93144,-46.46281],[-73.93096,-46.4628],[-73.93065,-46.46276],[-73.93042,-46.46275],[-73.93007,-46.4627],[-73.92998,-46.46268],[-73.92982,-46.46259],[-73.92971,-46.46241],[-73.9296,-46.46214],[-73.92956,-46.46208],[-73.92929,-46.46185],[-73.92905,-46.46173],[-73.92862,-46.46157],[-73.92843,-46.46153],[-73.92831,-46.46153],[-73.92783,-46.46159],[-73.92771,-46.46161],[-73.92751,-46.46162],[-73.92714,-46.46159],[-73.92703,-46.46156],[-73.92694,-46.46153],[-73.92678,-46.46144],[-73.92671,-46.46139],[-73.92651,-46.46116],[-73.92636,-46.46103],[-73.92612,-46.46089],[-73.92593,-46.46084],[-73.92568,-46.46082],[-73.92546,-46.46087],[-73.9253,-46.46097],[-73.92518,-46.4611],[-73.92507,-46.46127],[-73.92493,-46.46137],[-73.92472,-46.46138],[-73.92427,-46.46125],[-73.92405,-46.46117],[-73.92379,-46.46115],[-73.92367,-46.46106],[-73.92356,-46.46095],[-73.92344,-46.46062],[-73.92316,-46.4604],[-73.92302,-46.46023],[-73.92302,-46.4601],[-73.92314,-46.45989],[-73.92314,-46.45976],[-73.92311,-46.45953],[-73.92306,-46.45946],[-73.92298,-46.45942],[-73.92277,-46.45945],[-73.92247,-46.45955],[-73.92227,-46.45964],[-73.9221,-46.45975],[-73.92168,-46.46002],[-73.92157,-46.46006],[-73.92147,-46.46009],[-73.92127,-46.46007],[-73.92117,-46.46005],[-73.9211,-46.46],[-73.92093,-46.4598],[-73.92092,-46.45955],[-73.92093,-46.45949],[-73.92104,-46.4593],[-73.9213,-46.45906],[-73.92149,-46.45885],[-73.9215,-46.45864],[-73.92147,-46.4585],[-73.9213,-46.45829],[-73.92107,-46.45785],[-73.92099,-46.45779],[-73.92091,-46.45774],[-73.92079,-46.45773],[-73.92068,-46.45774],[-73.92059,-46.45777],[-73.92049,-46.45782],[-73.92018,-46.45787],[-73.91985,-46.45787],[-73.91952,-46.45782],[-73.91933,-46.45777],[-73.91921,-46.45775],[-73.91903,-46.45769],[-73.91891,-46.45766],[-73.91863,-46.45756],[-73.91854,-46.45751],[-73.91803,-46.45739],[-73.91789,-46.45731],[-73.9176,-46.45703],[-73.91754,-46.45688],[-73.91753,-46.45657],[-73.91747,-46.45643],[-73.91741,-46.45638],[-73.91718,-46.45623],[-73.91699,-46.45611],[-73.91683,-46.45604],[-73.91671,-46.45602],[-73.86201,-46.45593],[-73.79805,-46.45472],[-73.75936,-46.39652],[-73.70924,-46.36241],[-73.59764,-46.29793],[-73.56626,-46.2993],[-73.55423,-46.30114],[-73.55407,-46.30116],[-73.55383,-46.30126],[-73.55367,-46.30126],[-73.55358,-46.30121],[-73.55347,-46.30119],[-73.55323,-46.30123],[-73.55297,-46.30129],[-73.55276,-46.30128],[-73.55265,-46.30122],[-73.5525,-46.30117],[-73.55225,-46.30114],[-73.55207,-46.30115],[-73.5519,-46.30124],[-73.55165,-46.30131],[-73.55147,-46.30138],[-73.55125,-46.30153],[-73.55109,-46.30159],[-73.55091,-46.30163],[-73.55073,-46.30173],[-73.55058,-46.30178],[-73.55037,-46.30177],[-73.55014,-46.30174],[-73.54994,-46.30168],[-73.54986,-46.30172],[-73.54985,-46.30185],[-73.54987,-46.30196],[-73.54993,-46.30208],[-73.54994,-46.3022],[-73.54985,-46.30232],[-73.54973,-46.30239],[-73.54958,-46.30239],[-73.54951,-46.30232],[-73.54941,-46.30222],[-73.54929,-46.30217],[-73.54911,-46.30219],[-73.54882,-46.30224],[-73.54861,-46.30233],[-73.54845,-46.3024],[-73.54822,-46.30243],[-73.54807,-46.30243],[-73.5479,-46.30239],[-73.54779,-46.30237],[-73.54762,-46.30238],[-73.54746,-46.30244],[-73.54732,-46.30248],[-73.54716,-46.30244],[-73.54698,-46.30237],[-73.54669,-46.30228],[-73.54636,-46.30223],[-73.54604,-46.30216],[-73.54578,-46.30209],[-73.54556,-46.30206],[-73.54545,-46.30201],[-73.54534,-46.30194],[-73.54521,-46.3019],[-73.54488,-46.30185],[-73.54464,-46.30183],[-73.54434,-46.30186],[-73.54407,-46.3019],[-73.5439,-46.30193],[-73.54374,-46.30194],[-73.54359,-46.30197],[-73.54332,-46.3021],[-73.54312,-46.30217],[-73.54291,-46.30225],[-73.54278,-46.30236],[-73.54268,-46.30243],[-73.54253,-46.3025],[-73.54234,-46.30256],[-73.54215,-46.30255],[-73.54202,-46.30256],[-73.54177,-46.30262],[-73.54146,-46.30273],[-73.5411,-46.30288],[-73.5409,-46.30298],[-73.5408,-46.30306],[-73.5407,-46.30308],[-73.54062,-46.30306],[-73.54054,-46.30299],[-73.54042,-46.30293],[-73.5402,-46.30287],[-73.53999,-46.30287],[-73.53967,-46.30293],[-73.53952,-46.30295],[-73.5394,-46.30291],[-73.5393,-46.30291],[-73.53926,-46.30297],[-73.53914,-46.30299],[-73.53909,-46.30305],[-73.53913,-46.30313],[-73.53908,-46.30315],[-73.53892,-46.30316],[-73.53882,-46.30313],[-73.53867,-46.30309],[-73.53848,-46.30312],[-73.5384,-46.30317],[-73.53836,-46.30328],[-73.53836,-46.30336],[-73.53838,-46.30346],[-73.53826,-46.30355],[-73.53818,-46.30361],[-73.53811,-46.30373],[-73.53795,-46.30391],[-73.53781,-46.30402],[-73.53768,-46.30409],[-73.5376,-46.30415],[-73.53755,-46.30426],[-73.53747,-46.30434],[-73.53731,-46.30448],[-73.53723,-46.30451],[-73.5371,-46.3045],[-73.53697,-46.30454],[-73.53681,-46.30462],[-73.53669,-46.30472],[-73.53663,-46.30485],[-73.53658,-46.30501],[-73.53658,-46.30512],[-73.53651,-46.30518],[-73.53636,-46.30521],[-73.53616,-46.30525],[-73.536,-46.30527],[-73.53583,-46.30527],[-73.53568,-46.30531],[-73.53554,-46.30539],[-73.53543,-46.30544],[-73.53522,-46.30544],[-73.53509,-46.30543],[-73.53495,-46.30535],[-73.53484,-46.30531],[-73.5347,-46.30535],[-73.5346,-46.30539],[-73.53446,-46.30539],[-73.53426,-46.30535],[-73.53398,-46.30532],[-73.53378,-46.30536],[-73.53357,-46.30542],[-73.53332,-46.30553],[-73.53315,-46.30558],[-73.53305,-46.30557],[-73.53297,-46.3055],[-73.5329,-46.30542],[-73.53281,-46.30538],[-73.53271,-46.30536],[-73.53262,-46.30527],[-73.53251,-46.30521],[-73.53238,-46.3052],[-73.53223,-46.30523],[-73.53204,-46.30532],[-73.53183,-46.3054],[-73.53152,-46.30548],[-73.53131,-46.30554],[-73.53109,-46.30562],[-73.53075,-46.30574],[-73.53056,-46.30579],[-73.53035,-46.30581],[-73.53006,-46.30579],[-73.5298,-46.30574],[-73.5295,-46.30567],[-73.52932,-46.30565],[-73.52894,-46.30566],[-73.5287,-46.30568],[-73.52852,-46.30567],[-73.5283,-46.30563],[-73.52797,-46.30559],[-73.5276,-46.30559],[-73.52733,-46.30561],[-73.52706,-46.30565],[-73.52672,-46.30572],[-73.5266,-46.30571],[-73.52643,-46.30566],[-73.52618,-46.30555],[-73.52599,-46.30551],[-73.52575,-46.30551],[-73.52556,-46.30553],[-73.52533,-46.3056],[-73.52518,-46.30567],[-73.525,-46.30578],[-73.52485,-46.30589],[-73.52474,-46.30593],[-73.52463,-46.30591],[-73.52455,-46.3059],[-73.52441,-46.30592],[-73.52432,-46.30592],[-73.52427,-46.30587],[-73.5242,-46.30578],[-73.52413,-46.30572],[-73.52401,-46.30568],[-73.52379,-46.30572],[-73.52362,-46.30575],[-73.52353,-46.30573],[-73.52342,-46.30567],[-73.52321,-46.30561],[-73.52281,-46.30556],[-73.52267,-46.30553],[-73.5226,-46.30546],[-73.52252,-46.30538],[-73.52241,-46.30533],[-73.52221,-46.3053],[-73.52206,-46.30528],[-73.52185,-46.30525],[-73.5217,-46.30527],[-73.52155,-46.30531],[-73.52144,-46.3053],[-73.52135,-46.30522],[-73.52126,-46.30515],[-73.52115,-46.30512],[-73.52103,-46.30517],[-73.52096,-46.30517],[-73.52092,-46.30511],[-73.52093,-46.30505],[-73.52091,-46.30499],[-73.52082,-46.3049],[-73.52068,-46.30485],[-73.52038,-46.30485],[-73.52019,-46.30487],[-73.52006,-46.30493],[-73.51997,-46.30494],[-73.51989,-46.30491],[-73.51973,-46.3049],[-73.5196,-46.30492],[-73.51941,-46.30503],[-73.5193,-46.30513],[-73.51924,-46.30511],[-73.5192,-46.30502],[-73.51918,-46.30491],[-73.51909,-46.30479],[-73.51895,-46.30469],[-73.51885,-46.30466],[-73.51853,-46.30467],[-73.51823,-46.30469],[-73.51801,-46.30471],[-73.5179,-46.30472],[-73.51785,-46.30467],[-73.51776,-46.30464],[-73.51765,-46.30465],[-73.51754,-46.30465],[-73.51748,-46.3046],[-73.51738,-46.30455],[-73.51717,-46.30449],[-73.5169,-46.30445],[-73.51656,-46.30446],[-73.51635,-46.30449],[-73.51617,-46.3045],[-73.51604,-46.30453],[-73.51589,-46.30459],[-73.5158,-46.30462],[-73.51571,-46.30459],[-73.51566,-46.30451],[-73.51562,-46.30445],[-73.51552,-46.30441],[-73.51519,-46.30436],[-73.5151,-46.30432],[-73.515,-46.30424],[-73.51482,-46.30419],[-73.51453,-46.30417],[-73.51431,-46.30419],[-73.51406,-46.30426],[-73.51395,-46.30429],[-73.51386,-46.30425],[-73.5138,-46.30419],[-73.51364,-46.30416],[-73.51347,-46.30419],[-73.51315,-46.30426],[-73.51291,-46.30429],[-73.51265,-46.30429],[-73.51243,-46.30432],[-73.51225,-46.30438],[-73.51209,-46.30445],[-73.51185,-46.30452],[-73.5115,-46.30456],[-73.51105,-46.30462],[-73.51087,-46.30464],[-73.51068,-46.3047],[-73.51044,-46.3048],[-73.5101,-46.30497],[-73.50995,-46.30503],[-73.50981,-46.30505],[-73.50964,-46.30504],[-73.50934,-46.30494],[-73.50921,-46.30492],[-73.50906,-46.30494],[-73.50884,-46.30501],[-73.5086,-46.30502],[-73.50835,-46.30499],[-73.50798,-46.30495],[-73.50788,-46.30496],[-73.50781,-46.30502],[-73.50777,-46.30513],[-73.50771,-46.30519],[-73.50763,-46.3052],[-73.50749,-46.30515],[-73.50735,-46.3051],[-73.50725,-46.305],[-73.50717,-46.30495],[-73.50701,-46.30493],[-73.50693,-46.30488],[-73.5069,-46.30479],[-73.50686,-46.30471],[-73.50674,-46.30464],[-73.50657,-46.30457],[-73.50631,-46.30442],[-73.5062,-46.30439],[-73.50604,-46.30442],[-73.50591,-46.30447],[-73.50573,-46.30448],[-73.50547,-46.30444],[-73.5053,-46.30438],[-73.50523,-46.30433],[-73.50521,-46.30425],[-73.50517,-46.30417],[-73.50505,-46.30405],[-73.50492,-46.30398],[-73.50479,-46.30397],[-73.50472,-46.30401],[-73.50463,-46.30405],[-73.50451,-46.30402],[-73.50426,-46.30388],[-73.50406,-46.30385],[-73.50362,-46.30385],[-73.50316,-46.3039],[-73.50292,-46.30397],[-73.5027,-46.30405],[-73.50229,-46.30428],[-73.50206,-46.30438],[-73.50183,-46.30446],[-73.50169,-46.30447],[-73.50148,-46.30445],[-73.50132,-46.30439],[-73.50106,-46.30423],[-73.50095,-46.30416],[-73.50084,-46.30414],[-73.50069,-46.30416],[-73.50061,-46.30413],[-73.50057,-46.30403],[-73.50051,-46.30394],[-73.5004,-46.30389],[-73.50005,-46.30381],[-73.5,-46.30379],[-73.50004,-46.30374],[-73.50005,-46.30371],[-73.49999,-46.30369],[-73.49991,-46.3037],[-73.49986,-46.30373],[-73.49968,-46.3037],[-73.49934,-46.30371],[-73.49916,-46.30375],[-73.49895,-46.30382],[-73.4987,-46.30393],[-73.49857,-46.30397],[-73.49834,-46.30399],[-73.49809,-46.30399],[-73.49779,-46.30403],[-73.49732,-46.30412],[-73.49714,-46.30414],[-73.497,-46.30414],[-73.49666,-46.30412],[-73.49648,-46.30412],[-73.49619,-46.30415],[-73.49583,-46.3042],[-73.49552,-46.30423],[-73.49533,-46.30426],[-73.49502,-46.30436],[-73.49465,-46.30445],[-73.49411,-46.30455],[-73.49378,-46.30461],[-73.49351,-46.30468],[-73.49337,-46.30471],[-73.49322,-46.30472],[-73.49298,-46.30472],[-73.49273,-46.30473],[-73.49261,-46.30474],[-73.49249,-46.30478],[-73.49233,-46.30485],[-73.49225,-46.30487],[-73.49212,-46.30486],[-73.49204,-46.30483],[-73.49191,-46.30482],[-73.49179,-46.30482],[-73.49165,-46.30487],[-73.49145,-46.30492],[-73.49123,-46.30495],[-73.491,-46.30496],[-73.4908,-46.30497],[-73.49067,-46.30502],[-73.49057,-46.30512],[-73.49042,-46.30519],[-73.49023,-46.30522],[-73.48993,-46.30527],[-73.48964,-46.30532],[-73.48943,-46.3054],[-73.48916,-46.30548],[-73.489,-46.30557],[-73.48886,-46.30562],[-73.48879,-46.30562],[-73.48866,-46.30554],[-73.48842,-46.30547],[-73.48815,-46.30548],[-73.48798,-46.3055],[-73.48772,-46.30558],[-73.48745,-46.30559],[-73.48715,-46.30563],[-73.48675,-46.30569],[-73.48652,-46.30577],[-73.48619,-46.30589],[-73.48609,-46.30596],[-73.48606,-46.30605],[-73.48603,-46.30612],[-73.48592,-46.30618],[-73.48575,-46.30621],[-73.48559,-46.30625],[-73.48542,-46.30633],[-73.48511,-46.3065],[-73.48497,-46.30664],[-73.48483,-46.30676],[-73.48475,-46.30682],[-73.48468,-46.30692],[-73.48459,-46.30699],[-73.48446,-46.30704],[-73.48429,-46.30713],[-73.48414,-46.30719],[-73.48395,-46.30731],[-73.48385,-46.30743],[-73.48377,-46.30753],[-73.48367,-46.30757],[-73.48349,-46.30758],[-73.48335,-46.30759],[-73.48328,-46.30764],[-73.48328,-46.30775],[-73.48323,-46.30791],[-73.48316,-46.30805],[-73.48313,-46.30819],[-73.48315,-46.30827],[-73.48307,-46.3083],[-73.48291,-46.30828],[-73.4828,-46.30832],[-73.4827,-46.3084],[-73.48258,-46.30858],[-73.4824,-46.30871],[-73.48224,-46.30881],[-73.48204,-46.30888],[-73.48179,-46.30895],[-73.48156,-46.30896],[-73.48135,-46.30901],[-73.48101,-46.30913],[-73.48081,-46.30922],[-73.48059,-46.30929],[-73.4802,-46.30941],[-73.47995,-46.30948],[-73.47964,-46.30956],[-73.47941,-46.30962],[-73.47933,-46.30961],[-73.47927,-46.30957],[-73.47925,-46.30951],[-73.47923,-46.30941],[-73.47921,-46.30932],[-73.47914,-46.30923],[-73.479,-46.30915],[-73.47886,-46.30904],[-73.47879,-46.30902],[-73.47863,-46.30897],[-73.47839,-46.30897],[-73.47799,-46.30901],[-73.4776,-46.3091],[-73.47717,-46.30924],[-73.47701,-46.30933],[-73.47682,-46.30941],[-73.47664,-46.30944],[-73.47634,-46.30948],[-73.47608,-46.30954],[-73.47591,-46.30956],[-73.47581,-46.30964],[-73.47576,-46.30975],[-73.47565,-46.30984],[-73.47542,-46.3099],[-73.47522,-46.30998],[-73.47503,-46.31008],[-73.47489,-46.31022],[-73.47476,-46.31028],[-73.4746,-46.31032],[-73.4745,-46.31035],[-73.47447,-46.31041],[-73.47441,-46.31044],[-73.47434,-46.31046],[-73.4743,-46.31043],[-73.47428,-46.31038],[-73.47427,-46.31034],[-73.4743,-46.31036],[-73.47432,-46.31041],[-73.47436,-46.31042],[-73.47441,-46.31039],[-73.47441,-46.31035],[-73.47444,-46.31029],[-73.47451,-46.31023],[-73.47444,-46.31024],[-73.47434,-46.31025],[-73.47425,-46.31026],[-73.47399,-46.31026],[-73.47388,-46.31028],[-73.47372,-46.31029],[-73.4736,-46.31033],[-73.47352,-46.31036],[-73.47344,-46.31036],[-73.47335,-46.31036],[-73.47328,-46.31039],[-73.47319,-46.31044],[-73.4731,-46.31048],[-73.47298,-46.31051],[-73.47304,-46.31048],[-73.47311,-46.31045],[-73.47323,-46.31039],[-73.47333,-46.31035],[-73.47342,-46.31033],[-73.47353,-46.31031],[-73.47365,-46.31028],[-73.47372,-46.31023],[-73.4737,-46.31019],[-73.47361,-46.31015],[-73.47351,-46.31012],[-73.47342,-46.31011],[-73.47319,-46.31011],[-73.47301,-46.31017],[-73.47283,-46.31022],[-73.47262,-46.31025],[-73.47243,-46.31026],[-73.47222,-46.31026],[-73.47204,-46.31026],[-73.47178,-46.31027],[-73.47162,-46.31027],[-73.47147,-46.3103],[-73.47131,-46.31029],[-73.47113,-46.31029],[-73.47092,-46.31027],[-73.47073,-46.31024],[-73.4706,-46.31024],[-73.47043,-46.31027],[-73.47032,-46.3103],[-73.47028,-46.31034],[-73.47027,-46.31042],[-73.47026,-46.3105],[-73.47019,-46.31053],[-73.47007,-46.31054],[-73.46998,-46.31054],[-73.46998,-46.31049],[-73.47,-46.31043],[-73.47004,-46.31037],[-73.47002,-46.31035],[-73.46998,-46.31029],[-73.47,-46.31024],[-73.4701,-46.3102],[-73.47015,-46.31016],[-73.47009,-46.31015],[-73.46996,-46.31018],[-73.46987,-46.31019],[-73.46982,-46.31016],[-73.46981,-46.31011],[-73.46977,-46.31009],[-73.46971,-46.31012],[-73.46968,-46.31017],[-73.46966,-46.31026],[-73.46965,-46.31034],[-73.46963,-46.31041],[-73.46964,-46.31052],[-73.46964,-46.31062],[-73.4696,-46.31074],[-73.46951,-46.31085],[-73.4695,-46.31094],[-73.46943,-46.31094],[-73.46938,-46.31086],[-73.46932,-46.31079],[-73.46924,-46.31072],[-73.46915,-46.31066],[-73.46901,-46.31065],[-73.46888,-46.31065],[-73.46876,-46.3107],[-73.46861,-46.31078],[-73.46846,-46.31087],[-73.46834,-46.31096],[-73.46818,-46.31103],[-73.468,-46.31112],[-73.46774,-46.31123],[-73.46758,-46.31128],[-73.4674,-46.31132],[-73.46719,-46.31135],[-73.46701,-46.31141],[-73.46683,-46.31147],[-73.46666,-46.31153],[-73.46654,-46.31155],[-73.46627,-46.31155],[-73.46612,-46.31153],[-73.46596,-46.31149],[-73.46584,-46.31148],[-73.46569,-46.31144],[-73.46556,-46.31143],[-73.46538,-46.31145],[-73.46511,-46.31151],[-73.4648,-46.31154],[-73.46464,-46.31155],[-73.46445,-46.31157],[-73.4642,-46.31164],[-73.46377,-46.31176],[-73.46351,-46.31184],[-73.46329,-46.3119],[-73.46301,-46.31198],[-73.46277,-46.31203],[-73.46253,-46.31206],[-73.46237,-46.31209],[-73.46209,-46.31214],[-73.46171,-46.31217],[-73.46147,-46.31218],[-73.46113,-46.3122],[-73.46084,-46.31223],[-73.46058,-46.31224],[-73.4603,-46.31225],[-73.46011,-46.31228],[-73.45996,-46.31227],[-73.45971,-46.31225],[-73.45938,-46.31222],[-73.45933,-46.31226],[-73.45928,-46.31231],[-73.45917,-46.31233],[-73.45916,-46.31241],[-73.45908,-46.31237],[-73.459,-46.31233],[-73.4589,-46.31228],[-73.4588,-46.31224],[-73.45874,-46.31229],[-73.45867,-46.31238],[-73.45862,-46.31243],[-73.45849,-46.31248],[-73.45833,-46.31248],[-73.45809,-46.31247],[-73.45792,-46.31245],[-73.45772,-46.31245],[-73.45752,-46.31242],[-73.45734,-46.31235],[-73.45717,-46.31233],[-73.45699,-46.3123],[-73.45687,-46.31225],[-73.45671,-46.31219],[-73.45672,-46.31214],[-73.45681,-46.31213],[-73.45691,-46.31215],[-73.45702,-46.3122],[-73.45711,-46.31223],[-73.45727,-46.31224],[-73.45737,-46.31225],[-73.45751,-46.31231],[-73.45763,-46.31235],[-73.45772,-46.31236],[-73.4579,-46.31236],[-73.45802,-46.31236],[-73.45823,-46.31237],[-73.45838,-46.31237],[-73.45849,-46.31234],[-73.45854,-46.31229],[-73.45853,-46.31222],[-73.4584,-46.31214],[-73.45824,-46.31205],[-73.45812,-46.31198],[-73.45822,-46.312],[-73.45832,-46.31205],[-73.45849,-46.31211],[-73.45858,-46.31213],[-73.45867,-46.31212],[-73.45878,-46.31211],[-73.45888,-46.31213],[-73.45899,-46.31217],[-73.45908,-46.31218],[-73.45909,-46.31215],[-73.45906,-46.31212],[-73.45891,-46.31208],[-73.45876,-46.31205],[-73.45861,-46.31201],[-73.4584,-46.31194],[-73.45795,-46.31179],[-73.45748,-46.31166],[-73.45721,-46.31159],[-73.45672,-46.31148],[-73.45632,-46.31141],[-73.45604,-46.31137],[-73.45585,-46.31136],[-73.45563,-46.31136],[-73.45542,-46.31137],[-73.45511,-46.31141],[-73.45485,-46.31147],[-73.45451,-46.3116],[-73.45434,-46.31167],[-73.45416,-46.31175],[-73.45401,-46.31184],[-73.45376,-46.31198],[-73.45356,-46.31208],[-73.45333,-46.31216],[-73.4531,-46.31223],[-73.45277,-46.31236],[-73.45242,-46.31253],[-73.45209,-46.31268],[-73.4516,-46.31288],[-73.45133,-46.31299],[-73.45114,-46.3131],[-73.45098,-46.31319],[-73.45095,-46.31323],[-73.45095,-46.31329],[-73.45102,-46.31332],[-73.45108,-46.31336],[-73.45113,-46.31344],[-73.45124,-46.31354],[-73.45138,-46.31367],[-73.45153,-46.31378],[-73.4517,-46.31388],[-73.45173,-46.31393],[-73.4517,-46.31401],[-73.45161,-46.31403],[-73.45143,-46.31406],[-73.45137,-46.3141],[-73.45129,-46.31418],[-73.4512,-46.31433],[-73.45111,-46.31442],[-73.451,-46.31448],[-73.45089,-46.31449],[-73.45065,-46.31448],[-73.45037,-46.3145],[-73.45026,-46.31454],[-73.45011,-46.3146],[-73.44982,-46.31471],[-73.44961,-46.31475],[-73.44946,-46.31476],[-73.44937,-46.31471],[-73.44928,-46.31466],[-73.44923,-46.31458],[-73.44917,-46.3145],[-73.44912,-46.31442],[-73.44908,-46.31432],[-73.44905,-46.31427],[-73.44898,-46.31424],[-73.44884,-46.31421],[-73.44869,-46.31423],[-73.44856,-46.31425],[-73.44848,-46.31431],[-73.44843,-46.31439],[-73.44833,-46.31442],[-73.44823,-46.31449],[-73.44812,-46.31453],[-73.44799,-46.31457],[-73.44792,-46.31461],[-73.44784,-46.31462],[-73.44777,-46.31469],[-73.44767,-46.3148],[-73.44756,-46.31491],[-73.44748,-46.31498],[-73.44736,-46.31504],[-73.44727,-46.31511],[-73.44714,-46.31516],[-73.44701,-46.31519],[-73.44684,-46.31521],[-73.44671,-46.31524],[-73.44663,-46.3153],[-73.44652,-46.31537],[-73.4466,-46.31526],[-73.44667,-46.31521],[-73.44681,-46.31516],[-73.447,-46.31513],[-73.4471,-46.31511],[-73.4472,-46.31507],[-73.4473,-46.315],[-73.44743,-46.31492],[-73.44754,-46.31485],[-73.4476,-46.31478],[-73.44766,-46.31468],[-73.44778,-46.3146],[-73.44789,-46.31454],[-73.44799,-46.31449],[-73.44811,-46.31446],[-73.44824,-46.31441],[-73.44836,-46.31431],[-73.44846,-46.31421],[-73.44854,-46.31418],[-73.44868,-46.31416],[-73.44894,-46.31417],[-73.44907,-46.31419],[-73.44912,-46.31424],[-73.44917,-46.3143],[-73.44919,-46.31442],[-73.44923,-46.31451],[-73.44933,-46.31461],[-73.4494,-46.31467],[-73.44953,-46.31468],[-73.4497,-46.31466],[-73.44995,-46.31458],[-73.4501,-46.31453],[-73.45025,-46.31448],[-73.4505,-46.31442],[-73.45069,-46.3144],[-73.45087,-46.31439],[-73.45097,-46.31437],[-73.45107,-46.31432],[-73.45113,-46.31424],[-73.4512,-46.31413],[-73.45121,-46.31407],[-73.45127,-46.31404],[-73.45133,-46.31399],[-73.45147,-46.31397],[-73.45158,-46.31396],[-73.45159,-46.31395],[-73.45158,-46.31392],[-73.45147,-46.31385],[-73.45133,-46.31374],[-73.45124,-46.31367],[-73.45113,-46.31356],[-73.45105,-46.31349],[-73.45099,-46.31344],[-73.45082,-46.31335],[-73.45073,-46.31332],[-73.45066,-46.31331],[-73.4505,-46.31333],[-73.45038,-46.31336],[-73.4502,-46.31342],[-73.45004,-46.31348],[-73.44984,-46.31354],[-73.44974,-46.31357],[-73.44956,-46.31361],[-73.44948,-46.31362],[-73.4494,-46.3136],[-73.44932,-46.31357],[-73.44924,-46.31355],[-73.44903,-46.31355],[-73.44889,-46.31358],[-73.44869,-46.31363],[-73.44849,-46.31371],[-73.44832,-46.31377],[-73.44819,-46.31381],[-73.44798,-46.31387],[-73.44787,-46.3139],[-73.44772,-46.31394],[-73.44759,-46.31398],[-73.4474,-46.31402],[-73.44698,-46.31415],[-73.44657,-46.31427],[-73.4463,-46.31435],[-73.44601,-46.31445],[-73.44581,-46.31454],[-73.44557,-46.31467],[-73.44538,-46.31479],[-73.44505,-46.31498],[-73.44491,-46.31507],[-73.44474,-46.31517],[-73.44457,-46.31525],[-73.44437,-46.31533],[-73.444,-46.31549],[-73.4438,-46.31558],[-73.44359,-46.31568],[-73.44339,-46.31579],[-73.44301,-46.316],[-73.4426,-46.31623],[-73.44224,-46.31643],[-73.44183,-46.31667],[-73.44158,-46.31683],[-73.44144,-46.31693],[-73.44135,-46.31702],[-73.44128,-46.31711],[-73.44114,-46.31722],[-73.4409,-46.31737],[-73.44067,-46.31754],[-73.44052,-46.31765],[-73.44043,-46.31772],[-73.44036,-46.31784],[-73.44031,-46.31798],[-73.4402,-46.31825],[-73.4401,-46.3184],[-73.43999,-46.31849],[-73.4398,-46.31859],[-73.43953,-46.31869],[-73.43932,-46.31875],[-73.43897,-46.31879],[-73.43844,-46.31883],[-73.43794,-46.31889],[-73.43766,-46.31893],[-73.43729,-46.31896],[-73.43689,-46.31901],[-73.4366,-46.31905],[-73.43615,-46.31917],[-73.42935,-46.32408],[-73.4288,-46.32624],[-73.42777,-46.32801],[-73.42829,-46.33469],[-73.42673,-46.33936],[-73.42837,-46.3442],[-73.43187,-46.34671],[-73.43885,-46.34876],[-73.43793,-46.35131],[-73.44178,-46.35238],[-73.44343,-46.35545],[-73.44617,-46.35636],[-73.45044,-46.35627],[-73.45151,-46.35559],[-73.46152,-46.3591],[-73.4724,-46.36548],[-73.4753,-46.36873],[-73.47688,-46.37125],[-73.48447,-46.38033],[-73.48687,-46.38413],[-73.49371,-46.39284],[-73.49304,-46.3935],[-73.48435,-46.38799],[-73.47725,-46.38544],[-73.47632,-46.38582],[-73.47591,-46.38593],[-73.45935,-46.3674],[-73.45702,-46.36601],[-73.45325,-46.36389],[-73.45107,-46.36525],[-73.44575,-46.36806],[-73.43937,-46.36531],[-73.44242,-46.36359],[-73.43537,-46.35511],[-73.43247,-46.35293],[-73.42861,-46.35238],[-73.42566,-46.35107],[-73.4229,-46.34937],[-73.41906,-46.34642],[-73.41716,-46.34444],[-73.41595,-46.34298],[-73.41415,-46.34199],[-73.40991,-46.34152],[-73.40733,-46.34347],[-73.40288,-46.3465],[-73.39837,-46.34968],[-73.39735,-46.35093],[-73.39656,-46.35379],[-73.3961,-46.3556],[-73.39688,-46.36241],[-73.39249,-46.36623],[-73.38636,-46.37152],[-73.38152,-46.37219],[-73.37704,-46.37287],[-73.37009,-46.37277],[-73.36603,-46.37216],[-73.36546,-46.37078],[-73.36034,-46.37215],[-73.35653,-46.37142],[-73.3535,-46.36986],[-73.35045,-46.36744],[-73.34814,-46.36695],[-73.3403,-46.36665],[-73.32506,-46.36364],[-73.30215,-46.36239],[-73.29634,-46.37223],[-73.29313,-46.38669],[-73.29152,-46.39208],[-73.29503,-46.39438],[-73.29742,-46.39506],[-73.30098,-46.39506],[-73.30069,-46.39372],[-73.3059,-46.39321],[-73.3163,-46.39165],[-73.32385,-46.39147],[-73.33149,-46.3947],[-73.34032,-46.40063],[-73.34132,-46.41176],[-73.3487,-46.41878],[-73.35005,-46.43016],[-73.35554,-46.43481],[-73.36526,-46.44711],[-73.36926,-46.45885],[-73.36732,-46.45893],[-73.36611,-46.46052],[-73.36198,-46.45818],[-73.35938,-46.45548],[-73.35761,-46.44904],[-73.35503,-46.44857],[-73.35358,-46.44651],[-73.35367,-46.44355],[-73.35238,-46.4418],[-73.3493,-46.44028],[-73.34818,-46.4389],[-73.34659,-46.43845],[-73.34888,-46.43644],[-73.34675,-46.43314],[-73.34788,-46.43118],[-73.34578,-46.4311],[-73.3456,-46.42917],[-73.34362,-46.42805],[-73.34312,-46.42765],[-73.343,-46.42472],[-73.337,-46.42439],[-73.33733,-46.4219],[-73.33425,-46.41917],[-73.33428,-46.41652],[-73.32799,-46.40914],[-73.31692,-46.40435],[-73.3045,-46.40414],[-73.3009,-46.40507],[-73.28378,-46.40573],[-73.28132,-46.40904],[-73.28087,-46.41187],[-73.27526,-46.41716],[-73.27327,-46.42083],[-73.26789,-46.42445],[-73.26764,-46.42626],[-73.2637,-46.42646],[-73.26399,-46.42776],[-73.2788,-46.43095],[-73.28368,-46.43265],[-73.28357,-46.43317],[-73.28175,-46.43346],[-73.27856,-46.44675],[-73.2396,-46.43979],[-73.23301,-46.45806],[-73.21205,-46.47613],[-73.20773,-46.49501],[-73.208,-46.49549],[-73.18805,-46.49773],[-73.16653,-46.50022],[-73.15162,-46.50193],[-73.13141,-46.49691],[-73.13,-46.49649],[-73.12767,-46.49571],[-73.12565,-46.49495],[-73.12232,-46.49292],[-73.11975,-46.49102],[-73.11225,-46.4892],[-73.10899,-46.48773],[-73.10408,-46.48758],[-73.09771,-46.4884],[-73.08992,-46.48864],[-73.08374,-46.48657],[-73.08327,-46.49218],[-73.07773,-46.49856],[-73.07607,-46.50132],[-73.06944,-46.50417],[-73.0537,-46.51822],[-73.05037,-46.52228],[-73.0434,-46.52959],[-73.04374,-46.54112],[-73.02333,-46.53343],[-73.02256,-46.52443],[-73.00061,-46.51539],[-72.94674,-46.5394],[-72.9447,-46.54237],[-72.9448,-46.54447],[-72.92456,-46.55658],[-72.91861,-46.56493],[-72.90426,-46.57022],[-72.90796,-46.57485],[-72.90363,-46.58353],[-72.89946,-46.59711],[-72.88391,-46.61587],[-72.88533,-46.61969],[-72.86215,-46.63704],[-72.85182,-46.64216],[-72.84606,-46.64329],[-72.84687,-46.64394],[-72.82773,-46.65597],[-72.82096,-46.65632],[-72.80651,-46.65668],[-72.80208,-46.64414],[-72.79765,-46.64491],[-72.8036,-46.65846],[-72.79201,-46.65875],[-72.77268,-46.64949],[-72.76592,-46.63445],[-72.75343,-46.63653],[-72.74566,-46.63798],[-72.72303,-46.64241],[-72.71928,-46.63812],[-72.71812,-46.63914],[-72.71729,-46.64029],[-72.71287,-46.64198],[-72.71104,-46.6427],[-72.70012,-46.65114],[-72.68701,-46.65952],[-72.68143,-46.66642],[-72.67759,-46.6724],[-72.67765,-46.6762],[-72.68739,-46.67417],[-72.71586,-46.69009],[-72.72572,-46.69228],[-72.73257,-46.69388],[-72.76382,-46.6953],[-72.79097,-46.69112],[-72.79335,-46.69507],[-72.79744,-46.69842],[-72.79806,-46.70071],[-72.80287,-46.70383],[-72.80389,-46.70509],[-72.80321,-46.7069],[-72.83174,-46.70833],[-72.83991,-46.71343],[-72.84506,-46.71542],[-72.85522,-46.71344],[-72.8637,-46.71326],[-72.87836,-46.70906],[-72.89091,-46.702],[-72.89139,-46.71027],[-72.90466,-46.70236],[-72.90125,-46.69099],[-72.90978,-46.68447],[-72.91653,-46.68379],[-72.92489,-46.68607],[-72.92607,-46.68647],[-72.93059,-46.68343],[-72.93182,-46.68166],[-72.93256,-46.67781],[-72.93481,-46.67811],[-72.93149,-46.68437],[-72.93109,-46.68671],[-72.94284,-46.70321],[-72.95775,-46.7035],[-72.9731,-46.70413],[-72.99709,-46.70067],[-73.03017,-46.71044],[-73.03607,-46.71338],[-73.04196,-46.71441],[-73.05205,-46.71496],[-73.08875,-46.71366],[-73.09562,-46.71217],[-73.13154,-46.70502],[-73.13364,-46.70455],[-73.13365,-46.70475],[-73.13382,-46.70487],[-73.13406,-46.70489],[-73.13427,-46.70484],[-73.13453,-46.70491],[-73.13459,-46.70503],[-73.13446,-46.70522],[-73.1346,-46.7055],[-73.1346,-46.70567],[-73.13448,-46.7059],[-73.13424,-46.70619],[-73.13422,-46.70632],[-73.1344,-46.70645],[-73.13506,-46.70665],[-73.13533,-46.7068],[-73.13542,-46.70694],[-73.13581,-46.7073],[-73.13605,-46.70742],[-73.13647,-46.70748],[-73.13674,-46.70755],[-73.13698,-46.70771],[-73.1372,-46.70786],[-73.13762,-46.70797],[-73.13811,-46.70802],[-73.13842,-46.70807],[-73.13897,-46.70826],[-73.13915,-46.70836],[-73.1393,-46.70854],[-73.13956,-46.70869],[-73.13988,-46.7088],[-73.14074,-46.70893],[-73.14108,-46.70901],[-73.14154,-46.70912],[-73.14205,-46.70915],[-73.14222,-46.70914],[-73.14252,-46.70912],[-73.14275,-46.7091],[-73.14309,-46.70913],[-73.14332,-46.70907],[-73.14366,-46.70885],[-73.14366,-46.70885],[-73.14389,-46.70876],[-73.14419,-46.70872],[-73.14481,-46.70864],[-73.14513,-46.70857],[-73.14567,-46.70837],[-73.14593,-46.70826],[-73.14623,-46.70818],[-73.14673,-46.70801],[-73.14698,-46.70787],[-73.14718,-46.70762],[-73.14734,-46.70731],[-73.14753,-46.70676],[-73.14775,-46.70645],[-73.14801,-46.70619],[-73.14853,-46.70587],[-73.14887,-46.70573],[-73.14907,-46.70564],[-73.14948,-46.70555],[-73.14984,-46.70546],[-73.15009,-46.70542],[-73.15037,-46.70537],[-73.15084,-46.70528],[-73.15108,-46.70521],[-73.15115,-46.7052],[-73.15145,-46.70518],[-73.15177,-46.70518],[-73.15229,-46.70512],[-73.15251,-46.70506],[-73.15274,-46.70499],[-73.15297,-46.70495],[-73.15317,-46.7049],[-73.15188,-46.72354],[-73.13626,-46.71666],[-73.10565,-46.7182],[-73.10581,-46.71929],[-73.10768,-46.72024],[-73.10778,-46.72117],[-73.10763,-46.72133],[-73.1075,-46.72146],[-73.10725,-46.72162],[-73.10706,-46.72184],[-73.107,-46.72202],[-73.10705,-46.72215],[-73.10742,-46.72234],[-73.10764,-46.72247],[-73.10775,-46.72261],[-73.10789,-46.72324],[-73.10796,-46.72336],[-73.10801,-46.72361],[-73.10811,-46.72368],[-73.1081,-46.72379],[-73.10787,-46.72426],[-73.10776,-46.72441],[-73.10744,-46.72462],[-73.10743,-46.72484],[-73.10728,-46.72497],[-73.10728,-46.72509],[-73.10721,-46.72518],[-73.10695,-46.72523],[-73.10632,-46.72555],[-73.1061,-46.72568],[-73.10554,-46.72612],[-73.1053,-46.72626],[-73.10504,-46.72637],[-73.10467,-46.72646],[-73.10383,-46.72651],[-73.10338,-46.72654],[-73.10318,-46.72657],[-73.10267,-46.72659],[-73.10232,-46.72667],[-73.102,-46.72668],[-73.10099,-46.72664],[-73.10008,-46.72658],[-73.09873,-46.7264],[-73.09775,-46.72624],[-73.09686,-46.72608],[-73.09665,-46.72602],[-73.09635,-46.72599],[-73.09592,-46.72593],[-73.09533,-46.7258],[-73.0951,-46.72582],[-73.0949,-46.7259],[-73.09471,-46.72601],[-73.09347,-46.72719],[-73.09316,-46.72751],[-73.09302,-46.72768],[-73.09299,-46.72784],[-73.09288,-46.72821],[-73.0929,-46.72843],[-73.09297,-46.72872],[-73.0933,-46.72912],[-73.09347,-46.72925],[-73.09367,-46.72957],[-73.09419,-46.73017],[-73.09435,-46.73032],[-73.09481,-46.73082],[-73.0951,-46.73108],[-73.0953,-46.73121],[-73.09566,-46.73148],[-73.09592,-46.73175],[-73.09641,-46.73213],[-73.09672,-46.73235],[-73.09698,-46.73261],[-73.09732,-46.73287],[-73.09765,-46.73313],[-73.09785,-46.73324],[-73.09836,-46.73338],[-73.09854,-46.7336],[-73.09867,-46.73371],[-73.09888,-46.73379],[-73.09914,-46.73402],[-73.09941,-46.73422],[-73.09983,-46.7344],[-73.10024,-46.73454],[-73.10128,-46.7349],[-73.1023,-46.73518],[-73.10359,-46.73549],[-73.10022,-46.73583],[-73.09625,-46.73874],[-73.0941,-46.73505],[-73.09059,-46.73134],[-73.08777,-46.72955],[-73.07896,-46.73149],[-73.06896,-46.7324],[-73.06104,-46.73301],[-73.04968,-46.73177],[-73.03942,-46.72951],[-73.03692,-46.73242],[-73.01767,-46.73409],[-73.01301,-46.73515],[-73.00657,-46.74436],[-72.99687,-46.75116],[-72.99162,-46.75502],[-72.98746,-46.76063],[-72.96758,-46.76867],[-72.96173,-46.77116],[-72.95532,-46.7716],[-72.95497,-46.77894],[-72.95754,-46.78663],[-72.95245,-46.78832],[-72.95162,-46.78849],[-72.95298,-46.79104],[-72.96176,-46.79665],[-72.95509,-46.80195],[-72.94212,-46.79406],[-72.93773,-46.78907],[-72.93537,-46.7902],[-72.91875,-46.79567],[-72.93474,-46.8084],[-72.94678,-46.81331],[-72.95264,-46.81786],[-72.96076,-46.82808],[-72.95531,-46.83438],[-72.95528,-46.83461],[-72.95174,-46.8559],[-72.93976,-46.84948],[-72.92629,-46.82782],[-72.91251,-46.81645],[-72.9055,-46.80947],[-72.90011,-46.80931],[-72.88931,-46.81175],[-72.88868,-46.81416],[-72.88401,-46.81642],[-72.87052,-46.82105],[-72.86126,-46.82247],[-72.86373,-46.831],[-72.8657,-46.83602],[-72.87692,-46.84562],[-72.87867,-46.85602],[-72.88187,-46.85941],[-72.88167,-46.86453],[-72.88527,-46.86911],[-72.88345,-46.87326],[-72.88257,-46.87326],[-72.88922,-46.88365],[-72.88794,-46.90013],[-72.88859,-46.91583],[-72.8898,-46.92172],[-72.88992,-46.92783],[-72.89263,-46.93443],[-72.89586,-46.95103],[-72.89793,-46.96033],[-72.89791,-46.96978],[-72.9031,-46.97333],[-72.90744,-46.97773],[-72.92645,-46.98786],[-72.92712,-46.99124],[-72.92578,-46.99538],[-72.94424,-46.99179],[-72.95274,-46.98898],[-72.95648,-46.99028],[-72.96151,-46.99087],[-72.96583,-46.98872],[-73.00908,-46.9901],[-73.01864,-46.98551],[-73.02203,-46.98544],[-73.02214,-46.98335],[-73.02824,-46.98203],[-73.0711,-46.97906],[-73.08317,-46.97692],[-73.09811,-46.97563],[-73.09838,-46.97745],[-73.09986,-46.97534],[-73.09706,-46.97273],[-73.0977,-46.96978],[-73.0989,-46.96776],[-73.09896,-46.95579],[-73.11926,-46.93091],[-73.12926,-46.93403],[-73.12948,-46.93944],[-73.13587,-46.9417],[-73.12754,-46.9533],[-73.11424,-46.96246],[-73.10978,-46.97116],[-73.11731,-46.98045],[-73.17323,-46.96961],[-73.18022,-46.97112],[-73.18721,-46.97806],[-73.20796,-46.97273],[-73.2157,-46.97892],[-73.20899,-46.98257],[-73.22134,-46.99416],[-73.20103,-47.00291],[-73.19483,-46.99537],[-73.18495,-46.98867],[-73.16708,-46.98357],[-73.13549,-46.9867],[-73.11757,-46.98645],[-73.11324,-46.98819],[-73.10681,-47.00679],[-73.10527,-47.01894],[-73.09647,-47.01088],[-73.08736,-47.00566],[-73.06832,-46.99814],[-73.03622,-47.00986],[-73.01047,-47.00748],[-72.9806,-47.02229],[-72.9462,-47.02476],[-72.91312,-47.0212],[-72.90601,-47.02058],[-72.90056,-47.01868],[-72.90109,-47.01521],[-72.89623,-47.01231],[-72.8778,-47.0065],[-72.86448,-46.99598],[-72.85917,-46.99341],[-72.85555,-46.99393],[-72.85259,-47.00878],[-72.84405,-47.02609],[-72.83991,-47.03237],[-72.83556,-47.03873],[-72.84909,-47.04509],[-72.82898,-47.0526],[-72.81943,-47.06958],[-72.81901,-47.0741],[-72.80971,-47.07316],[-72.80664,-47.07078],[-72.80656,-47.08156],[-72.80436,-47.08683],[-72.80313,-47.09026],[-72.80206,-47.09984],[-72.80126,-47.10341],[-72.80839,-47.10752],[-72.80956,-47.10989],[-72.81164,-47.11203],[-72.81207,-47.11475],[-72.81493,-47.11567],[-72.82661,-47.11587],[-72.84255,-47.12126],[-72.85123,-47.12587],[-72.86411,-47.12944],[-72.8687,-47.12804],[-72.87072,-47.12265],[-72.86886,-47.11484],[-72.86926,-47.10916],[-72.8721,-47.10613],[-72.8711,-47.09716],[-72.86775,-47.08605],[-72.86705,-47.08028],[-72.88029,-47.07767],[-72.88161,-47.08519],[-72.88799,-47.10152],[-72.89506,-47.10396],[-72.90645,-47.10399],[-72.91138,-47.10126],[-72.92019,-47.10177],[-72.93166,-47.10426],[-72.9392,-47.10341],[-72.94107,-47.10647],[-72.96167,-47.11628],[-72.96646,-47.11655],[-72.96967,-47.12241],[-72.97519,-47.12714],[-72.97322,-47.12909],[-72.99042,-47.13092],[-72.99689,-47.12962],[-73.016,-47.13038],[-73.01611,-47.12853],[-73.01803,-47.12624],[-73.049,-47.13441],[-73.08929,-47.13],[-73.09083,-47.13344],[-73.09407,-47.13393],[-73.09229,-47.13575],[-73.09349,-47.1375],[-73.09761,-47.13868],[-73.09885,-47.13691],[-73.1034,-47.13618],[-73.1064,-47.13574],[-73.10946,-47.13628],[-73.11607,-47.13331],[-73.1216,-47.13321],[-73.12181,-47.12704],[-73.12408,-47.12177],[-73.13378,-47.12928],[-73.1355,-47.14113],[-73.12467,-47.14357],[-73.1093,-47.14332],[-73.09198,-47.14381],[-73.08842,-47.1502],[-73.08325,-47.15801],[-73.08473,-47.16217],[-73.09522,-47.16506],[-73.10923,-47.1656],[-73.11522,-47.16515],[-73.11925,-47.16892],[-73.12196,-47.16955],[-73.12245,-47.17084],[-73.12286,-47.17151],[-73.12439,-47.17307],[-73.12499,-47.17345],[-73.12596,-47.17376],[-73.12624,-47.1738],[-73.12683,-47.17372],[-73.12733,-47.1734],[-73.1275,-47.17564],[-73.10991,-47.17716],[-73.08025,-47.16092],[-73.04964,-47.1532],[-73.04889,-47.15478],[-73.05084,-47.1561],[-73.04601,-47.15676],[-73.03058,-47.15323],[-73.0235,-47.1536],[-73.02004,-47.15181],[-72.99814,-47.15066],[-72.99767,-47.14915],[-72.95743,-47.14442],[-72.9368,-47.13744],[-72.92643,-47.1367],[-72.92427,-47.13329],[-72.9108,-47.13598],[-72.90656,-47.13813],[-72.89941,-47.13806],[-72.89036,-47.14054],[-72.88645,-47.14325],[-72.87127,-47.14495],[-72.86177,-47.14495],[-72.85436,-47.14488],[-72.84927,-47.14299],[-72.84352,-47.14234],[-72.84739,-47.14487],[-72.84781,-47.15134],[-72.85922,-47.16108],[-72.87017,-47.16573],[-72.87148,-47.17035],[-72.87809,-47.17155],[-72.88048,-47.17283],[-72.88986,-47.17153],[-72.89956,-47.17343],[-72.90811,-47.17451],[-72.91121,-47.17636],[-72.91607,-47.17647],[-72.9171,-47.17851],[-72.93802,-47.18906],[-72.93771,-47.19116],[-72.94194,-47.19402],[-72.94358,-47.19275],[-72.94499,-47.19278],[-72.94675,-47.19386],[-72.95039,-47.19421],[-72.95496,-47.19691],[-72.95516,-47.19895],[-72.95491,-47.20308],[-72.959,-47.20617],[-72.93985,-47.21127],[-72.93704,-47.21072],[-72.93538,-47.21134],[-72.92072,-47.21573],[-72.91237,-47.21595],[-72.90238,-47.2167],[-72.89476,-47.21683],[-72.89433,-47.217],[-72.88741,-47.22615],[-72.87771,-47.25075],[-72.88492,-47.25486],[-72.90183,-47.25848],[-72.90347,-47.26423],[-72.90541,-47.26563],[-72.90294,-47.26839],[-72.9082,-47.26846],[-72.9119,-47.26426],[-72.91695,-47.26364],[-72.92188,-47.2642],[-72.92275,-47.26502],[-72.92893,-47.26494],[-72.93096,-47.26248],[-72.94072,-47.26942],[-72.955,-47.27884],[-72.96774,-47.28632],[-72.97936,-47.2885],[-72.98426,-47.29315],[-72.98727,-47.294],[-72.98763,-47.29408],[-72.99309,-47.29557],[-73.00501,-47.30201],[-73.00896,-47.30548],[-73.02747,-47.31232],[-73.0304,-47.30575],[-73.03883,-47.30651],[-73.04515,-47.30134],[-73.05683,-47.31412],[-73.06632,-47.32026],[-73.08427,-47.32822],[-73.09891,-47.33519],[-73.11165,-47.341],[-73.11483,-47.34173],[-73.11501,-47.34196],[-73.11537,-47.34218],[-73.11593,-47.34248],[-73.11614,-47.34256],[-73.11643,-47.3426],[-73.11685,-47.34263],[-73.11748,-47.34263],[-73.11788,-47.3426],[-73.11836,-47.34258],[-73.11874,-47.34262],[-73.11907,-47.34269],[-73.11929,-47.34281],[-73.11956,-47.34302],[-73.11983,-47.34321],[-73.1201,-47.34336],[-73.12116,-47.34376],[-73.12196,-47.34403],[-73.12231,-47.35576],[-73.12566,-47.35952],[-73.12634,-47.36348],[-73.12127,-47.36542],[-73.11277,-47.36178],[-73.10446,-47.36041],[-73.10181,-47.3558],[-73.09564,-47.35563],[-73.08295,-47.34974],[-73.07809,-47.34855],[-73.07434,-47.34423],[-73.06945,-47.34131],[-73.05722,-47.3406],[-73.05033,-47.33518],[-73.04208,-47.33501],[-73.04089,-47.33385],[-73.04465,-47.32938],[-73.04402,-47.32966],[-73.04371,-47.33026],[-73.04131,-47.33199],[-73.03932,-47.33319],[-73.02185,-47.34372],[-73.0023,-47.354],[-72.98181,-47.35857],[-72.97211,-47.36662],[-72.94253,-47.36331],[-72.92093,-47.3686],[-72.9319,-47.37877],[-72.94462,-47.39835],[-72.95151,-47.40119],[-72.95062,-47.41253],[-72.9448,-47.42824],[-72.94694,-47.43283],[-72.95111,-47.44211],[-72.95093,-47.44908],[-72.95376,-47.45358],[-72.95363,-47.45678],[-72.95604,-47.45794],[-72.95987,-47.46733],[-72.97107,-47.47203],[-72.96823,-47.48186],[-72.97063,-47.48567],[-72.97802,-47.49018],[-72.98261,-47.49625],[-72.99942,-47.50451],[-73.00659,-47.50531],[-73.02769,-47.51954],[-73.02586,-47.52156],[-73.02584,-47.52173],[-73.02578,-47.52181],[-73.02567,-47.52189],[-73.02552,-47.52196],[-73.02526,-47.52209],[-73.02511,-47.52218],[-73.02484,-47.5223],[-73.02459,-47.52242],[-73.02444,-47.52254],[-73.02438,-47.52266],[-73.02439,-47.52279],[-73.02442,-47.52293],[-73.02455,-47.52308],[-73.02477,-47.52323],[-73.02508,-47.52335],[-73.02548,-47.52342],[-73.02581,-47.52346],[-73.02613,-47.52345],[-73.02662,-47.52342],[-73.02719,-47.52339],[-73.02746,-47.52342],[-73.02768,-47.52346],[-73.0279,-47.52356],[-73.02822,-47.52371],[-73.02871,-47.52395],[-73.02931,-47.52419],[-73.02942,-47.52424],[-73.0296,-47.52435],[-73.02962,-47.52438],[-73.0296,-47.52443],[-73.02961,-47.52445],[-73.02963,-47.52446],[-73.02976,-47.52446],[-73.02987,-47.52448],[-73.02989,-47.5245],[-73.02995,-47.5246],[-73.03,-47.52465],[-73.0301,-47.52469],[-73.03018,-47.5247],[-73.03041,-47.52472],[-73.03058,-47.52474],[-73.03071,-47.52477],[-73.03086,-47.52483],[-73.03098,-47.52488],[-73.03116,-47.52495],[-73.03119,-47.52497],[-73.03123,-47.525],[-73.03124,-47.52505],[-73.03126,-47.52508],[-73.03128,-47.52511],[-73.0313,-47.52512],[-73.03136,-47.52514],[-73.03143,-47.52516],[-73.03147,-47.52519],[-73.03154,-47.52523],[-73.03159,-47.52524],[-73.03163,-47.52524],[-73.03169,-47.52523],[-73.03187,-47.52519],[-73.0321,-47.52513],[-73.03265,-47.52496],[-73.03298,-47.52465],[-73.03328,-47.52448],[-73.03367,-47.52431],[-73.03431,-47.52411],[-73.03548,-47.52391],[-73.03665,-47.5236],[-73.0373,-47.52346],[-73.03774,-47.52334],[-73.03797,-47.52319],[-73.03832,-47.5227],[-73.03841,-47.52254],[-73.03858,-47.52233],[-73.0389,-47.52209],[-73.03935,-47.52181],[-73.04022,-47.52143],[-73.04083,-47.52125],[-73.04114,-47.52122],[-73.04139,-47.52127],[-73.04152,-47.52131],[-73.04161,-47.52139],[-73.04165,-47.52144],[-73.04175,-47.52149],[-73.04203,-47.52155],[-73.0421,-47.52154],[-73.04222,-47.52151],[-73.04233,-47.52144],[-73.04243,-47.52139],[-73.04251,-47.52139],[-73.04258,-47.5214],[-73.04265,-47.52143],[-73.04278,-47.52148],[-73.04288,-47.5215],[-73.04306,-47.52149],[-73.04322,-47.52145],[-73.04337,-47.52138],[-73.04362,-47.52121],[-73.04397,-47.52104],[-73.04425,-47.52096],[-73.04444,-47.52096],[-73.04454,-47.52099],[-73.04462,-47.52104],[-73.04469,-47.52113],[-73.04469,-47.52121],[-73.04464,-47.52131],[-73.04465,-47.52139],[-73.0447,-47.52145],[-73.04478,-47.52151],[-73.04494,-47.52158],[-73.04524,-47.52166],[-73.04547,-47.52169],[-73.04569,-47.52169],[-73.04615,-47.52163],[-73.0464,-47.52164],[-73.04664,-47.52168],[-73.04692,-47.52178],[-73.04705,-47.52182],[-73.04722,-47.52185],[-73.04743,-47.52185],[-73.04777,-47.52181],[-73.04789,-47.52181],[-73.048,-47.52183],[-73.04807,-47.52189],[-73.04816,-47.52203],[-73.04829,-47.52217],[-73.04848,-47.52229],[-73.04869,-47.52238],[-73.04901,-47.5225],[-73.04924,-47.52256],[-73.04953,-47.52259],[-73.04978,-47.5226],[-73.05017,-47.52256],[-73.05056,-47.52253],[-73.05091,-47.52255],[-73.0512,-47.52259],[-73.05181,-47.52266],[-73.05216,-47.52271],[-73.05236,-47.52281],[-73.05251,-47.52292],[-73.05274,-47.52315],[-73.05307,-47.52352],[-73.05338,-47.52373],[-73.05368,-47.52396],[-73.05375,-47.524],[-73.05384,-47.52402],[-73.054,-47.52404],[-73.05405,-47.52406],[-73.05413,-47.5241],[-73.05418,-47.52417],[-73.05419,-47.52422],[-73.05426,-47.52431],[-73.05443,-47.52446],[-73.05457,-47.52455],[-73.05468,-47.52462],[-73.05504,-47.52497],[-73.05554,-47.5254],[-73.05579,-47.5256],[-73.05597,-47.52565],[-73.05612,-47.52573],[-73.05619,-47.52577],[-73.05623,-47.52584],[-73.05625,-47.52602],[-73.05629,-47.52609],[-73.05639,-47.52616],[-73.05649,-47.52622],[-73.05658,-47.52628],[-73.05667,-47.52641],[-73.05671,-47.52651],[-73.05682,-47.52669],[-73.05739,-47.52746],[-73.0577,-47.52786],[-73.05786,-47.52799],[-73.05803,-47.52807],[-73.05823,-47.52815],[-73.05853,-47.52825],[-73.05876,-47.52835],[-73.05899,-47.52848],[-73.05941,-47.52879],[-73.05964,-47.52898],[-73.0598,-47.52907],[-73.05995,-47.52913],[-73.06034,-47.52922],[-73.0605,-47.52924],[-73.06061,-47.52926],[-73.06074,-47.52931],[-73.06096,-47.52943],[-73.06113,-47.52955],[-73.06138,-47.52974],[-73.0616,-47.52998],[-73.06177,-47.53006],[-73.06195,-47.53011],[-73.06221,-47.53011],[-73.06251,-47.5301],[-73.06341,-47.52996],[-73.06445,-47.52969],[-73.06505,-47.52947],[-73.06532,-47.52933],[-73.06633,-47.52876],[-73.06667,-47.5286],[-73.06691,-47.52855],[-73.06712,-47.52856],[-73.06745,-47.52862],[-73.06782,-47.52877],[-73.06845,-47.52891],[-73.06909,-47.52902],[-73.06953,-47.52907],[-73.06985,-47.52909],[-73.0702,-47.52909],[-73.07045,-47.52912],[-73.07066,-47.5292],[-73.07096,-47.52932],[-73.07138,-47.52955],[-73.07164,-47.52967],[-73.0718,-47.52973],[-73.07194,-47.52976],[-73.07235,-47.52979],[-73.07265,-47.52979],[-73.0728,-47.52978],[-73.07291,-47.52975],[-73.07306,-47.52969],[-73.07319,-47.52967],[-73.07333,-47.52965],[-73.07357,-47.52966],[-73.07383,-47.52966],[-73.07405,-47.52965],[-73.0744,-47.52957],[-73.0753,-47.52937],[-73.0758,-47.52928],[-73.07627,-47.52925],[-73.07688,-47.52925],[-73.07709,-47.52927],[-73.07723,-47.52932],[-73.07737,-47.52942],[-73.07748,-47.52953],[-73.07774,-47.52968],[-73.07831,-47.52985],[-73.07879,-47.52994],[-73.07949,-47.52996],[-73.08007,-47.52999],[-73.08096,-47.52999],[-73.08179,-47.53008],[-73.08254,-47.53017],[-73.08343,-47.53036],[-73.08468,-47.53065],[-73.08575,-47.53084],[-73.08614,-47.53095],[-73.08698,-47.53119],[-73.08759,-47.53138],[-73.088,-47.53157],[-73.08826,-47.53168],[-73.08839,-47.53173],[-73.08861,-47.53174],[-73.08879,-47.53174],[-73.08888,-47.53175],[-73.08892,-47.53177],[-73.08894,-47.53181],[-73.08896,-47.53189],[-73.08902,-47.532],[-73.08914,-47.53208],[-73.08924,-47.5321],[-73.08933,-47.5321],[-73.08946,-47.53207],[-73.08969,-47.52984],[-73.09084,-47.52833],[-73.09398,-47.52954],[-73.09699,-47.52965],[-73.09529,-47.53129],[-73.10677,-47.53377],[-73.10764,-47.53495],[-73.10776,-47.54193],[-73.10584,-47.54502],[-73.10573,-47.54505],[-73.10556,-47.54515],[-73.10543,-47.54535],[-73.10552,-47.54555],[-73.1058,-47.54565],[-73.10605,-47.54579],[-73.10627,-47.54596],[-73.10653,-47.54612],[-73.10674,-47.54626],[-73.10695,-47.54642],[-73.10723,-47.54652],[-73.10762,-47.5466],[-73.10792,-47.54667],[-73.10818,-47.54678],[-73.10837,-47.54694],[-73.10861,-47.54707],[-73.10889,-47.54719],[-73.10916,-47.54726],[-73.10946,-47.54735],[-73.10981,-47.54741],[-73.11009,-47.54749],[-73.11041,-47.54762],[-73.11088,-47.54787],[-73.1112,-47.54796],[-73.11157,-47.5481],[-73.11176,-47.54826],[-73.11204,-47.54838],[-73.11236,-47.54845],[-73.11266,-47.54854],[-73.11296,-47.54857],[-73.11328,-47.54857],[-73.11356,-47.54846],[-73.11388,-47.54839],[-73.11423,-47.54836],[-73.11455,-47.54836],[-73.11487,-47.54836],[-73.11522,-47.54823],[-73.11532,-47.54803],[-73.11528,-47.54783],[-73.11515,-47.54757],[-73.11528,-47.54738],[-73.11549,-47.54722],[-73.11597,-47.54709],[-73.11627,-47.54706],[-73.11659,-47.54703],[-73.11689,-47.54699],[-73.11713,-47.54683],[-73.11732,-47.54667],[-73.11749,-47.54648],[-73.11766,-47.54628],[-73.11788,-47.54612],[-73.11811,-47.54596],[-73.11833,-47.5458],[-73.11856,-47.54567],[-73.11884,-47.54557],[-73.11912,-47.54545],[-73.11942,-47.54535],[-73.1197,-47.54525],[-73.11998,-47.54518],[-73.12026,-47.54503],[-73.12052,-47.54486],[-73.12056,-47.54466],[-73.12052,-47.54444],[-73.12039,-47.54429],[-73.12024,-47.5442],[-73.12018,-47.54412],[-73.12013,-47.54403],[-73.1202,-47.54391],[-73.12032,-47.54382],[-73.12032,-47.54372],[-73.12032,-47.54365],[-73.12015,-47.54348],[-73.1199,-47.54326],[-73.1197,-47.5431],[-73.11944,-47.543],[-73.11908,-47.5429],[-73.11878,-47.54286],[-73.11849,-47.54286],[-73.11859,-47.54268],[-73.14178,-47.53328],[-73.17714,-47.53249],[-73.17854,-47.53542],[-73.1785,-47.53898],[-73.16813,-47.53871],[-73.16386,-47.53828],[-73.15961,-47.53975],[-73.15782,-47.53892],[-73.15242,-47.54223],[-73.14758,-47.54233],[-73.14271,-47.54084],[-73.13841,-47.54138],[-73.13414,-47.54076],[-73.13096,-47.54305],[-73.12733,-47.54509],[-73.12367,-47.54987],[-73.12431,-47.55132],[-73.13181,-47.55245],[-73.13432,-47.55132],[-73.13436,-47.55002],[-73.13548,-47.5493],[-73.1414,-47.54946],[-73.14392,-47.55042],[-73.15016,-47.54929],[-73.15276,-47.55044],[-73.15499,-47.54937],[-73.15741,-47.55058],[-73.15745,-47.55194],[-73.16101,-47.55206],[-73.16627,-47.5501],[-73.1687,-47.55107],[-73.17381,-47.54843],[-73.17608,-47.54866],[-73.17821,-47.54752],[-73.18242,-47.54709],[-73.18612,-47.54289],[-73.19243,-47.54243],[-73.20054,-47.54509],[-73.20829,-47.54527],[-73.2119,-47.54607],[-73.21675,-47.54306],[-73.22801,-47.5362],[-73.22989,-47.53178],[-73.23506,-47.52995],[-73.24181,-47.52703],[-73.24509,-47.52152],[-73.24565,-47.51832],[-73.25281,-47.51393],[-73.25322,-47.51276],[-73.24977,-47.50943],[-73.25198,-47.50648],[-73.25911,-47.50898],[-73.23941,-47.55323],[-73.23882,-47.5537],[-73.16324,-47.5574],[-73.11189,-47.5739],[-73.1038,-47.60022],[-73.0829,-47.61792],[-73.10014,-47.64604],[-73.10851,-47.65009],[-73.13145,-47.65262],[-73.13968,-47.65232],[-73.14909,-47.65644],[-73.14943,-47.66424],[-73.15399,-47.66764],[-73.16547,-47.67555],[-73.18273,-47.68478],[-73.19023,-47.68938],[-73.19439,-47.6929],[-73.20041,-47.69256],[-73.20785,-47.68218],[-73.2185,-47.67436],[-73.23034,-47.68117],[-73.23912,-47.68419],[-73.24612,-47.68226],[-73.25516,-47.68508],[-73.26464,-47.68659],[-73.27467,-47.69142],[-73.27908,-47.69814],[-73.29573,-47.70309],[-73.30602,-47.70754],[-73.3149,-47.71167],[-73.32532,-47.72113],[-73.33541,-47.72651],[-73.3445,-47.7297],[-73.35816,-47.73159],[-73.36839,-47.73529],[-73.38036,-47.7367],[-73.39907,-47.7397],[-73.41306,-47.74213],[-73.42706,-47.74475],[-73.43924,-47.74856],[-73.44712,-47.75048],[-73.45891,-47.74965],[-73.46689,-47.74953],[-73.48929,-47.74717],[-73.5036,-47.74363],[-73.52194,-47.74216],[-73.53457,-47.74166],[-73.547,-47.74191],[-73.56194,-47.74578],[-73.57718,-47.74982],[-73.60621,-47.7507],[-73.6323,-47.74965],[-73.64397,-47.74751],[-73.65523,-47.74091],[-73.66326,-47.73519],[-73.66684,-47.72891],[-73.67027,-47.72115],[-73.67,-47.71503],[-73.67008,-47.70903],[-73.67047,-47.70176],[-73.668,-47.69503],[-73.6674,-47.69059],[-73.66625,-47.68701],[-73.66496,-47.68414],[-73.65988,-47.67807],[-73.63967,-47.66899],[-73.62562,-47.6607],[-73.61267,-47.65077],[-73.59691,-47.64408],[-73.58174,-47.64051],[-73.56893,-47.64269],[-73.54876,-47.64914],[-73.52486,-47.65553],[-73.5141,-47.65637],[-73.50166,-47.65581],[-73.49201,-47.65515],[-73.48321,-47.65361],[-73.48088,-47.64805],[-73.48076,-47.64304],[-73.47766,-47.63939],[-73.4724,-47.63583],[-73.45934,-47.63509],[-73.45272,-47.63367],[-73.44829,-47.62883],[-73.45033,-47.62373],[-73.45341,-47.61629],[-73.45657,-47.61344],[-73.46339,-47.6136],[-73.46735,-47.60926],[-73.47218,-47.60782],[-73.47907,-47.60169],[-73.48872,-47.5988],[-73.49672,-47.59828],[-73.50136,-47.59475],[-73.51307,-47.59429],[-73.52871,-47.59639],[-73.53388,-47.59535],[-73.53548,-47.57814],[-73.53995,-47.54763],[-73.5474,-47.52307],[-73.55082,-47.51624],[-73.55173,-47.50889],[-73.55859,-47.5061],[-73.56387,-47.50296],[-73.56231,-47.49748],[-73.55786,-47.49421],[-73.54906,-47.49414],[-73.54044,-47.49438],[-73.52909,-47.49336],[-73.52425,-47.49094],[-73.5213,-47.48708],[-73.52418,-47.48289],[-73.53309,-47.48076],[-73.54781,-47.47788],[-73.56869,-47.47318],[-73.58839,-47.46914],[-73.60042,-47.46647],[-73.62086,-47.46486],[-73.64782,-47.46361],[-73.67343,-47.46288],[-73.68795,-47.46228],[-73.69442,-47.46218],[-73.69627,-47.46477],[-73.70003,-47.47324],[-73.70189,-47.4785],[-73.70024,-47.48327],[-73.69806,-47.48744],[-73.69822,-47.49183],[-73.69952,-47.49601],[-73.69901,-47.49807],[-73.69832,-47.50061],[-73.70224,-47.50311],[-73.70294,-47.50575],[-73.70069,-47.50647],[-73.69731,-47.50618],[-73.69531,-47.50646],[-73.69418,-47.50741],[-73.69016,-47.51035],[-73.68834,-47.51274],[-73.68892,-47.51719],[-73.69145,-47.52026],[-73.69176,-47.52378],[-73.69796,-47.52706],[-73.69968,-47.52875],[-73.70005,-47.53097],[-73.69742,-47.53261],[-73.69445,-47.53638],[-73.69419,-47.53933],[-73.69542,-47.5414],[-73.69879,-47.54408],[-73.69992,-47.54698],[-73.69691,-47.55028],[-73.6965,-47.55347],[-73.69843,-47.5567],[-73.7042,-47.55786],[-73.71132,-47.5598],[-73.71373,-47.56335],[-73.72252,-47.56452],[-73.73904,-47.56661],[-73.79882,-47.57444],[-73.87217,-47.58026],[-73.93199,-47.58523],[-73.93699,-47.58414],[-73.94331,-47.58485],[-73.96674,-47.59204],[-73.98545,-47.598],[-73.99562,-47.6009],[-74.00824,-47.60333],[-74.02073,-47.60498],[-74.03176,-47.60506],[-74.03867,-47.60437],[-74.05304,-47.60159],[-74.06811,-47.59893],[-74.08218,-47.59754],[-74.0951,-47.5948],[-74.10467,-47.59048],[-74.11557,-47.58793],[-74.12965,-47.58608],[-74.15857,-47.5837],[-74.17866,-47.58243],[-74.2074,-47.58514],[-74.23153,-47.58826],[-74.24781,-47.59346],[-74.27582,-47.5936],[-74.28389,-47.59326],[-74.2953,-47.58868],[-74.30225,-47.58336],[-74.30981,-47.57131],[-74.31676,-47.56037],[-74.32654,-47.54733],[-74.34311,-47.53725],[-74.36697,-47.52439],[-74.391,-47.515],[-74.42757,-47.50966],[-74.44096,-47.50387],[-74.4855,-47.47035],[-74.49416,-47.46256],[-74.52721,-47.43685],[-74.52857,-47.28355],[-74.52993,-47.1298],[-74.53129,-46.97561],[-74.69761,-46.97544],[-74.86394,-46.97528],[-75.03026,-46.97511],[-75.19658,-46.97495],[-75.36291,-46.97478],[-75.52923,-46.97462],[-75.69555,-46.97445]]]]}}